{"type":"FeatureCollection","features":[{"type":"Feature","properties":{"kind":"land","source":"Natural Earth 1:10m"},"geometry":{"type":"MultiPolygon","coordinates":[[[[-70.597564,42.023098],[-70.592193,42.020087],[-70.59081,42.01732],[-70.596791,42.010647],[-70.60676,42.004584],[-70.617299,42.003241],[-70.627919,42.005561],[-70.637807,42.010647],[-70.632883,42.012112],[-70.623606,42.016059],[-70.617299,42.016791],[-70.629303,42.044338],[-70.63303517024781,42.05],[-70.6200938933178,42.05],[-70.597564,42.023098]]],[[[-70.66511,42.010647],[-70.675038,42.014716],[-70.682851,42.016059],[-70.690338,42.014716],[-70.714833,42.002672],[-70.654937,41.957099],[-70.623687,41.955064],[-70.60497,41.952541],[-70.565826,41.95539],[-70.55,41.944169059856954],[-70.55,41.55863934188756],[-70.565826,41.558173],[-70.596059,41.553046],[-70.658682,41.521349],[-70.685618,41.530829],[-70.661733,41.550482],[-70.652496,41.57803],[-70.652008,41.654242],[-70.657094,41.670559],[-70.658274,41.684475],[-70.652008,41.693915],[-70.639963,41.702297],[-70.631907,41.711127],[-70.637807,41.721991],[-70.628163,41.728095],[-70.623606,41.729438],[-70.630605,41.740139],[-70.640004,41.740953],[-70.648183,41.734198],[-70.651438,41.721991],[-70.658274,41.721991],[-70.689809,41.739691],[-70.710439,41.748033],[-70.719716,41.746161],[-70.723297,41.713772],[-70.721913,41.701606],[-70.71288,41.687812],[-70.739329,41.690131],[-70.749094,41.679755],[-70.756093,41.663031],[-70.774322,41.646226],[-70.786041,41.660468],[-70.797841,41.658881],[-70.805735,41.651028],[-70.805735,41.646226],[-70.805002,41.642564],[-70.821116,41.634996],[-70.840566,41.628892],[-70.850087,41.629543],[-70.843984,41.603949],[-70.845204,41.592475],[-70.856923,41.59162],[-70.862904,41.597235],[-70.869985,41.615871],[-70.874257,41.622992],[-70.881012,41.627916],[-70.905385,41.640041],[-70.907338,41.614936],[-70.920969,41.598334],[-70.93163,41.580268],[-70.92516,41.550727],[-70.947621,41.536444],[-70.959706,41.531195],[-70.973622,41.530829],[-70.972239,41.535102],[-70.970937,41.537665],[-71.015452,41.512274],[-71.040151,41.507148],[-71.069814,41.517157],[-71.049469,41.523749],[-71.043853,41.536851],[-71.049306,41.551947],[-71.062367,41.564358],[-71.062123,41.54385],[-71.07372,41.538723],[-71.110748,41.54385],[-71.101552,41.528306],[-71.097157,41.523383],[-71.121897,41.513007],[-71.185902,41.468736],[-71.199127,41.492133],[-71.202016,41.502631],[-71.196401,41.513414],[-71.195668,41.520819],[-71.206939,41.558173],[-71.21052,41.60224],[-71.209706,41.626166],[-71.206939,41.646226],[-71.190256,41.685614],[-71.135569,41.75552],[-71.110748,41.797065],[-71.126047,41.792426],[-71.138092,41.779934],[-71.169545,41.733303],[-71.176259,41.72663],[-71.185902,41.721991],[-71.207997,41.729153],[-71.221059,41.731391],[-71.226877,41.725735],[-71.228993,41.720933],[-71.238393,41.707343],[-71.240549,41.698065],[-71.240224,41.684638],[-71.241038,41.68122],[-71.244862,41.680325],[-71.260406,41.651109],[-71.285715,41.659613],[-71.301829,41.659613],[-71.308827,41.670803],[-71.306752,41.684719],[-71.301503,41.702623],[-71.294057,41.72016],[-71.280914,41.7414],[-71.28303,41.748847],[-71.289703,41.754096],[-71.298818,41.75609],[-71.301991,41.751695],[-71.304433,41.730048],[-71.308827,41.721991],[-71.318186,41.724799],[-71.337066,41.733791],[-71.355621,41.746283],[-71.364003,41.759833],[-71.36559,41.777655],[-71.370351,41.79206],[-71.378814,41.804999],[-71.391347,41.818793],[-71.395009,41.805732],[-71.396311,41.783271],[-71.39509,41.759508],[-71.391347,41.742499],[-71.384755,41.735663],[-71.3756,41.730536],[-71.367502,41.723822],[-71.364003,41.712063],[-71.366851,41.703559],[-71.380279,41.683661],[-71.384429,41.674221],[-71.391469,41.68301],[-71.398427,41.689765],[-71.40689,41.693834],[-71.418609,41.694648],[-71.430247,41.691107],[-71.44164,41.684068],[-71.446767,41.677232],[-71.423329,41.668158],[-71.413808,41.652899],[-71.410268,41.632961],[-71.412465,41.612738],[-71.423695,41.594306],[-71.437367,41.584784],[-71.442779,41.574652],[-71.429514,41.554389],[-71.424631,41.538886],[-71.423411,41.486396],[-71.426096,41.468736],[-71.454792,41.406132],[-71.469618,41.391331],[-71.483957,41.37995],[-71.488271,41.370592],[-71.497711,41.366278],[-71.507802,41.368109],[-71.530385,41.376451],[-71.555828,41.374846],[-71.598884,41.367522],[-71.753814,41.331041],[-71.828972,41.316984],[-71.871475,41.302575],[-71.877914,41.311512],[-71.856534,41.322501],[-71.862375,41.332587],[-71.872141,41.33926],[-71.885365,41.344631],[-71.898061,41.346503],[-71.963246,41.345364],[-71.97289,41.343695],[-72.036244,41.317857],[-72.083404,41.352037],[-72.095123,41.346096],[-72.1,41.326950009133206],[-72.1,42.05],[-70.6573337880413,42.05],[-70.66511,42.010647]]],[[[-71.930904,41.078791],[-71.9033,41.084672],[-71.875111,41.07571],[-71.857411,41.071723],[-71.864898,41.062079],[-71.88497,41.045397],[-71.929512,41.037848],[-72.008872,41.007386],[-72.087148,40.983425],[-72.1,40.978445451287975],[-72.1,41.00287767664042],[-72.088043,41.004828],[-72.049875,41.017686],[-72.011708,41.0421],[-71.992747,41.049628],[-71.975707,41.043397],[-71.958753,41.046283],[-71.958068,41.069718],[-71.945304,41.073475],[-71.933427,41.064925],[-71.918935,41.058661],[-71.918935,41.064887],[-71.930904,41.078791]]]]}},{"type":"Feature","properties":{"kind":"land","source":"Natural Earth 1:10m"},"geometry":{"type":"Polygon","coordinates":[[[-70.563344,41.418687],[-70.55,41.41474216455336],[-70.55,41.358708274755124],[-70.666005,41.357001],[-70.696278,41.351508],[-70.723948,41.342719],[-70.74767,41.331],[-70.775909,41.304389],[-70.786407,41.304145],[-70.804677,41.312567],[-70.814971,41.320705],[-70.834055,41.339911],[-70.846221,41.346666],[-70.846221,41.354071],[-70.781972,41.354234],[-70.754506,41.372504],[-70.742177,41.384833],[-70.715321,41.420356],[-70.702626,41.427802],[-70.689605,41.433092],[-70.659901,41.456529],[-70.605133,41.474026],[-70.593007,41.471666],[-70.603668,41.448228],[-70.588775,41.454169],[-70.579498,41.465888],[-70.570424,41.473944],[-70.555898,41.468736],[-70.55,41.460114278918276],[-70.55,41.441453397668774],[-70.556549,41.43651],[-70.576405,41.427802],[-70.563344,41.418687]]]}},{"type":"Feature","properties":{"kind":"land","source":"Natural Earth 1:10m"},"geometry":{"type":"MultiPolygon","coordinates":[[[[-71.330719,41.575588],[-71.337229,41.582099],[-71.337229,41.592515],[-71.330719,41.610745],[-71.335927,41.62637],[-71.35676,41.631578],[-71.359364,41.641995],[-71.355458,41.660224],[-71.343739,41.67064],[-71.335927,41.65762],[-71.330719,41.647203],[-71.317698,41.63288],[-71.303375,41.62637],[-71.304677,41.604234],[-71.315094,41.580797],[-71.330719,41.575588]]],[[[-71.566151,41.193752],[-71.559926,41.183743],[-71.551869,41.175727],[-71.544473,41.162888],[-71.549095,41.152042],[-71.571572,41.149769],[-71.59955,41.145779],[-71.613748,41.155181],[-71.612717,41.167467],[-71.608025,41.180589],[-71.597486,41.187669],[-71.591217,41.197333],[-71.582672,41.204047],[-71.580434,41.214789],[-71.5792,41.225572],[-71.572581,41.228827],[-71.567047,41.22484],[-71.553541,41.214572],[-71.559474,41.201024],[-71.566151,41.193752]]],[[[-72.022807,41.253487],[-72.038798,41.249447],[-72.036563,41.260865],[-72.026228,41.266904],[-72.02213,41.276858],[-72.011349,41.276208],[-72.003362,41.267013],[-71.998077,41.274082],[-71.994004,41.283081],[-71.953888,41.286711],[-71.939757,41.292197],[-71.920732,41.291396],[-71.928001,41.281979],[-71.946575,41.276568],[-71.970153,41.273622],[-71.988329,41.260085],[-71.998734,41.251666],[-72.022807,41.253487]]],[[[-72.091354,41.1019],[-72.078431,41.099964],[-72.079034,41.094845],[-72.085093,41.091725],[-72.084971,41.083543],[-72.081451,41.074879],[-72.086101,41.068189],[-72.092789,41.061479],[-72.1,41.05498694585513],[-72.1,41.10432086048087],[-72.091354,41.1019]]],[[[-70.821935,41.260393],[-70.814021,41.263167],[-70.809126,41.259514],[-70.801798,41.256785],[-70.801756,41.248076],[-70.810903,41.248046],[-70.823108,41.25076],[-70.832282,41.256692],[-70.830471,41.260366],[-70.821935,41.260393]]],[[[-70.859465,41.448265],[-70.856494,41.443128],[-70.848598,41.434332],[-70.854454,41.429168],[-70.875984,41.422481],[-70.906386,41.422371],[-70.927917,41.41862],[-70.938665,41.41122],[-70.948503,41.414124],[-70.940678,41.420775],[-70.92603,41.428917],[-70.911335,41.429706],[-70.897646,41.436372],[-70.871176,41.43867],[-70.859465,41.448265]]],[[[-70.710638,41.519214],[-70.694926,41.517037],[-70.679194,41.51045],[-70.699784,41.502327],[-70.718398,41.491998],[-70.742893,41.481654],[-70.758565,41.475741],[-70.757554,41.468393],[-70.768306,41.459546],[-70.790816,41.449199],[-70.808457,41.446946],[-70.832951,41.442465],[-70.839861,41.450531],[-70.828125,41.457182],[-70.813403,41.455018],[-70.782124,41.478623],[-70.724354,41.5111],[-70.710638,41.519214]]]]}},{"type":"Feature","properties":{"kind":"land","source":"Natural Earth 1:10m"},"geometry":{"type":"MultiPolygon","coordinates":[[[[-71.357289,41.536566],[-71.360422,41.514553],[-71.365631,41.495347],[-71.371449,41.482367],[-71.376088,41.476996],[-71.384145,41.469468],[-71.392649,41.463284],[-71.398793,41.4619],[-71.40099,41.468451],[-71.395172,41.490912],[-71.398793,41.502875],[-71.392201,41.505927],[-71.389475,41.509223],[-71.387807,41.512885],[-71.384429,41.517157],[-71.395334,41.526435],[-71.39269,41.54267],[-71.377675,41.577948],[-71.368398,41.576239],[-71.362416,41.572455],[-71.35912,41.566392],[-71.357818,41.558173],[-71.357289,41.536566]]],[[[-71.279449,41.593085],[-71.27359,41.620998],[-71.267812,41.632636],[-71.257802,41.640692],[-71.232737,41.652777],[-71.220611,41.660549],[-71.220611,41.640041],[-71.232574,41.605902],[-71.233632,41.530829],[-71.235097,41.518988],[-71.237538,41.509508],[-71.238026,41.500312],[-71.233632,41.489203],[-71.264801,41.49608],[-71.285959,41.482001],[-71.303212,41.466376],[-71.323069,41.468736],[-71.33495,41.459052],[-71.346181,41.454739],[-71.354563,41.458319],[-71.357818,41.47248],[-71.351308,41.477851],[-71.319976,41.488471],[-71.308827,41.495429],[-71.32136,41.508531],[-71.325551,41.519965],[-71.322255,41.530422],[-71.312489,41.540758],[-71.309153,41.546088],[-71.308176,41.553168],[-71.308827,41.567776],[-71.305776,41.571723],[-71.291086,41.578274],[-71.285512,41.581732],[-71.279449,41.593085]]]]}},{"type":"Feature","properties":{"kind":"shipping","name":"Narragansett approach"},"geometry":{"type":"LineString","coordinates":[[-71.38,41.12],[-71.38,41.3],[-71.37,41.43],[-71.36,41.56]]}},{"type":"Feature","properties":{"kind":"label","name":"Narragansett Bay"},"geometry":{"type":"Point","coordinates":[-71.36,41.53]}},{"type":"Feature","properties":{"kind":"label","name":"Rhode Island Sound"},"geometry":{"type":"Point","coordinates":[-71.31,41.2]}},{"type":"Feature","properties":{"kind":"label","name":"Block Island"},"geometry":{"type":"Point","coordinates":[-71.59,41.19]}},{"type":"Feature","properties":{"kind":"label","name":"Newport"},"geometry":{"type":"Point","coordinates":[-71.31,41.49]}},{"type":"Feature","properties":{"kind":"depth","depth_m":5},"geometry":{"type":"LineString","coordinates":[[-72.09791666666666,40.97767000257022],[-72.08125,40.97868748336562],[-72.06563754325944,40.985416666666666],[-72.06458333333333,40.986758782659514],[-72.04791666666667,40.99612806207094],[-72.03125,40.994485828072364],[-72.0160419774533,41.00208333333333],[-72.01458333333333,41.00256364619964],[-71.99791666666667,41.00481458689295],[-71.98125,41.010376077041556],[-71.97099217526238,41.01875],[-71.96458333333334,41.02108361906189],[-71.94791666666667,41.02891054089426],[-71.93125,41.0268228841001],[-71.91702120315524,41.03541666666666],[-71.91458333333334,41.04327623523366],[-71.89791666666666,41.04075551297466],[-71.88125,41.04163908883337],[-71.87010681333051,41.052083333333336],[-71.86458333333333,41.05776498482248],[-71.85228324407794,41.06875],[-71.86458333333333,41.08353767136636],[-71.88125,41.083538782424434],[-71.8904053271352,41.08541666666667],[-71.89791666666666,41.09007718316365],[-71.90798458732408,41.08541666666667],[-71.91458333333334,41.08412649726208],[-71.93125,41.0721300004297],[-71.94791666666667,41.07844282990085],[-71.95830343578784,41.06875],[-71.96045126213215,41.052083333333336],[-71.96458333333334,41.048815423741544],[-71.98125,41.04939137834286],[-71.99791666666667,41.047061618009934],[-72.01198516757387,41.03541666666666],[-72.01458333333333,41.032533085404005],[-72.03125,41.0264801735692],[-72.04791666666667,41.02556012638642],[-72.06069086260216,41.01875],[-72.06458333333333,41.015584013492514],[-72.08125,41.01826166810542],[-72.09791666666666,41.010283589965624]]}},{"type":"Feature","properties":{"kind":"depth","depth_m":5},"geometry":{"type":"LineString","coordinates":[[-72.09791666666666,41.02217653404697],[-72.08125,41.02006301790474],[-72.06957573250301,41.03541666666666],[-72.08125,41.04682628801144],[-72.08333639332376,41.052083333333336],[-72.08125,41.05575654390077],[-72.07823263464276,41.06875],[-72.08046004187833,41.08541666666667],[-72.07327826357648,41.10208333333333],[-72.08125,41.109156365862184],[-72.09791666666666,41.11701711778497]]}},{"type":"Feature","properties":{"kind":"depth","depth_m":5},"geometry":{"type":"LineString","coordinates":[[-71.56458333333333,41.228940424616496],[-71.5797322217586,41.21875],[-71.58574379673956,41.202083333333334],[-71.58125,41.19043651238173],[-71.57152656062296,41.18541666666667],[-71.58125,41.18448150118908],[-71.583666088516,41.18541666666667],[-71.59791666666666,41.19348551278566],[-71.60583723473526,41.18541666666667],[-71.61341203242728,41.16875],[-71.61415516856772,41.15208333333334],[-71.59791666666666,41.13914183356657],[-71.58125,41.14057328351841],[-71.56458333333333,41.13877149388717],[-71.54791666666667,41.14806391615863],[-71.54494325680558,41.15208333333334],[-71.54791666666667,41.16451263836597],[-71.54940669320123,41.16875],[-71.56284976133853,41.18541666666667],[-71.55507797552778,41.202083333333334],[-71.5536000529188,41.21875],[-71.56458333333333,41.228940424616496]]}},{"type":"Feature","properties":{"kind":"depth","depth_m":5},"geometry":{"type":"LineString","coordinates":[[-71.98125,41.275825894188685],[-71.99791666666667,41.28250283179922],[-72.01458333333333,41.2787937360179],[-72.02470512288043,41.26875],[-72.01458333333333,41.25440721788167],[-71.99791666666667,41.26350440499536],[-71.98125,41.265696926388664],[-71.97538170305975,41.26875],[-71.98125,41.275825894188685]]}},{"type":"Feature","properties":{"kind":"depth","depth_m":5},"geometry":{"type":"LineString","coordinates":[[-71.93125,41.295460404535646],[-71.94791666666667,41.2881212506713],[-71.96458333333334,41.28775827834885],[-71.96797734843591,41.28541666666666],[-71.96458333333334,41.28277496377374],[-71.94791666666667,41.283847165124044],[-71.93125,41.278775362957475],[-71.9211019517042,41.28541666666666],[-71.93125,41.295460404535646]]}},{"type":"Feature","properties":{"kind":"depth","depth_m":5},"geometry":{"type":"LineString","coordinates":[[-70.54791666666667,41.45236767951317],[-70.55147900640897,41.46875],[-70.56458333333333,41.476162970874086],[-70.57992433802535,41.46875],[-70.58125,41.46663380831247],[-70.58264860227247,41.46875],[-70.59791666666666,41.47991748406224],[-70.61458333333333,41.482709916644346],[-70.63698711033423,41.46875],[-70.66458333333334,41.46210102927953],[-70.67426989297012,41.452083333333334],[-70.68125,41.447152944235434],[-70.69791666666667,41.4377946054276],[-70.70045198085715,41.43541666666667],[-70.71347581538468,41.41875],[-70.71458333333334,41.41686884881959],[-70.72914074647228,41.40208333333334],[-70.73125,41.40080000683096],[-70.74574083370085,41.385416666666664],[-70.74791666666667,41.38368499972864],[-70.76302645666333,41.36875],[-70.76458333333333,41.36049885260464],[-70.77733896541748,41.35208333333333],[-70.78125,41.3369447477312],[-70.7856136039881,41.35208333333333],[-70.79791666666667,41.356870923514805],[-70.81458333333333,41.36002880333242],[-70.83125,41.35986122808696],[-70.84307441087594,41.35208333333333],[-70.82958325508072,41.33541666666667],[-70.81458333333333,41.32224286966404],[-70.80337727293484,41.31875],[-70.79791666666667,41.310465568702135],[-70.78716713565302,41.302083333333336],[-70.78125,41.29849236062854],[-70.77098766300213,41.302083333333336],[-70.76458333333333,41.30397848098971],[-70.7560559626543,41.31875],[-70.74791666666667,41.32157459981258],[-70.73125,41.3354538835202],[-70.71458333333334,41.33811726860496],[-70.69791666666667,41.34304759410457],[-70.66458333333334,41.34343614529984],[-70.64791666666667,41.34767973271837],[-70.63125,41.34387912281092],[-70.61458333333333,41.34481028565136],[-70.58125,41.3452643044136],[-70.56458333333333,41.345842278310464],[-70.54791666666667,41.3456910950436]]}},{"type":"Feature","properties":{"kind":"depth","depth_m":5},"geometry":{"type":"LineString","coordinates":[[-72.09791666666666,41.30335678553137],[-72.08481534259117,41.31875],[-72.08547236559313,41.33541666666667],[-72.08125,41.337048563114024],[-72.07994000758399,41.33541666666667],[-72.07401398982783,41.31875],[-72.06458333333333,41.307614803558884],[-72.04791666666667,41.31399561443227],[-72.03125,41.305020712205376],[-72.01458333333333,41.31255131429417],[-71.99791666666667,41.3112552807131],[-71.98125,41.31778738594108],[-71.96458333333334,41.31989815251204],[-71.94791666666667,41.32651822376594],[-71.93125,41.32321480019334],[-71.91458333333334,41.3278525400606],[-71.90214703818641,41.31875],[-71.89791666666666,41.31743806439176],[-71.88125,41.30970755203416],[-71.86458333333333,41.313486219021556],[-71.84791666666666,41.30940422721287],[-71.81700974780362,41.31875],[-71.79791666666667,41.32360706451052],[-71.78125,41.3269865323271],[-71.76458333333333,41.32954554040884],[-71.74791666666667,41.33025561625423],[-71.73125,41.3318536113838],[-71.71458333333334,41.330228454499064],[-71.7030988801117,41.33541666666667],[-71.69791666666667,41.340075271214296],[-71.68125,41.347807580460994],[-71.66458333333334,41.346159858858194],[-71.64804943859681,41.35208333333333],[-71.63125,41.35947085167455],[-71.61458333333333,41.363163547042944],[-71.59791666666666,41.35865869998976],[-71.58125,41.364063911408444],[-71.57045140440401,41.36875],[-71.56458333333333,41.37014895290018],[-71.54791666666667,41.372418783168946],[-71.53125,41.3752366717992],[-71.51725969874205,41.36875],[-71.51458333333333,41.367003837087346],[-71.49791666666667,41.3636140112727],[-71.48125,41.36471641525562],[-71.46780774785391,41.385416666666664],[-71.46458333333334,41.38772046830452],[-71.45566083026443,41.40208333333334],[-71.4501129307231,41.43541666666667],[-71.44791666666667,41.43736742609349],[-71.43125,41.44532053240177],[-71.42419077213314,41.452083333333334],[-71.41940560323339,41.46875],[-71.41779077883149,41.485416666666666],[-71.41798356959046,41.50208333333333],[-71.41458333333334,41.51353451142555],[-71.41091731596086,41.51875],[-71.4135296224409,41.53541666666666],[-71.41458333333334,41.54011442981958],[-71.41839020247092,41.552083333333336],[-71.43125,41.567879229623735],[-71.4323455071061,41.56875],[-71.43125,41.569412854560795],[-71.41458333333334,41.57559818242619],[-71.41027693840132,41.58541666666667],[-71.39791666666666,41.61772928996202],[-71.39697624414879,41.61875],[-71.39791666666666,41.62290559921736],[-71.39877878361854,41.635416666666664],[-71.39791666666666,41.64234097153553],[-71.39241418419176,41.65208333333334],[-71.38125,41.653960748719314],[-71.37106676048543,41.66875],[-71.36458333333333,41.68476410521361],[-71.36232969936619,41.68541666666667],[-71.34823276993842,41.702083333333334],[-71.35436735034448,41.71875],[-71.36458333333333,41.72627873666867],[-71.37294372084612,41.735416666666666],[-71.36458333333333,41.7471949338905],[-71.35383920246068,41.735416666666666],[-71.34791666666666,41.726842238050075],[-71.33541014379101,41.71875],[-71.33125,41.71535148898061],[-71.32166321092555,41.71875],[-71.31458333333333,41.72009525377828],[-71.31268714917249,41.71875],[-71.29791666666667,41.70229113679694],[-71.30132933227799,41.68541666666667],[-71.30875743284463,41.66875],[-71.30684224509966,41.65208333333334],[-71.28345865875563,41.635416666666664],[-71.28125,41.63173601498697],[-71.27984242681536,41.635416666666664],[-71.26458333333333,41.641130478757475],[-71.25258237128556,41.65208333333334],[-71.24791666666667,41.66074951560421],[-71.23610007797258,41.66875],[-71.23125,41.686432957820024],[-71.21701432041091,41.702083333333334],[-71.21458333333334,41.70611652458332],[-71.19791666666667,41.70363696824559],[-71.18125,41.70351733773311],[-71.177962628133,41.702083333333334],[-71.18125,41.701052347335335],[-71.19674921681747,41.68541666666667],[-71.19791666666667,41.6804009840503],[-71.21147538712968,41.66875],[-71.21334372691075,41.65208333333334],[-71.21300357453315,41.635416666666664],[-71.21408109705845,41.61875],[-71.21458333333334,41.6051063916188],[-71.2226535393181,41.61875],[-71.22257452135338,41.635416666666664],[-71.23125,41.647145656755306],[-71.24791666666667,41.644634478384475],[-71.2559128636638,41.635416666666664],[-71.26458333333333,41.626292365656944],[-71.27654175297012,41.61875],[-71.27925846790103,41.60208333333333],[-71.28125,41.59985164060652],[-71.29675397063363,41.58541666666667],[-71.29921929010318,41.56875],[-71.31086597824455,41.552083333333336],[-71.31458333333333,41.53613706849248],[-71.31496775799228,41.53541666666666],[-71.32795133169375,41.51875],[-71.32526189636654,41.50208333333333],[-71.32393888963843,41.485416666666666],[-71.33125,41.481269098127065],[-71.34791666666666,41.47333957876906],[-71.3531157428019,41.46875],[-71.35184704656403,41.452083333333334],[-71.34791666666666,41.445720194618815],[-71.33168817336438,41.452083333333334],[-71.31458333333333,41.455313010863165],[-71.29791666666667,41.46139850347857],[-71.28908637626758,41.46875],[-71.28125,41.48032984707234],[-71.26636434846,41.485416666666666],[-71.26458333333333,41.4856523088091],[-71.26347608434065,41.485416666666666],[-71.24791666666667,41.477233606712446],[-71.23742278726941,41.485416666666666],[-71.23125,41.50599740286925],[-71.21972443435159,41.51875],[-71.22602506353785,41.53541666666666],[-71.23125,41.54007443159984],[-71.23227250829926,41.552083333333336],[-71.23125,41.58053914779932],[-71.21965293641045,41.56875],[-71.2273058597292,41.552083333333336],[-71.21458333333334,41.53889045602289],[-71.21309341303217,41.53541666666666],[-71.21277263427336,41.51875],[-71.21127232648796,41.50208333333333],[-71.19791666666667,41.48613448693066],[-71.19685572994311,41.485416666666666],[-71.19031577466212,41.46875],[-71.18125,41.46228413821536],[-71.16458333333334,41.469516755614464],[-71.14791666666666,41.47541550672943],[-71.1367484669046,41.485416666666666],[-71.13125,41.494591988489034],[-71.11458333333333,41.49545768101128],[-71.09791666666666,41.50302858767175],[-71.08125,41.507986883812684],[-71.06458333333333,41.50973550149787],[-71.05896561586975,41.50208333333333],[-71.04791666666667,41.491344350721086],[-71.03125,41.485227023314195],[-71.02177845564715,41.50208333333333],[-71.01458333333333,41.50820263336622],[-70.99791666666667,41.50982991256019],[-70.98125,41.50838371447048],[-70.96785552188928,41.51875],[-70.96458333333334,41.52050901141879],[-70.94791666666667,41.521887697130914],[-70.93459224262915,41.53541666666666],[-70.93464784451366,41.552083333333336],[-70.93304739944755,41.56875],[-70.93125,41.573141318920456],[-70.91864886593005,41.58541666666667],[-70.91458333333334,41.59165100413826],[-70.89108494970799,41.60208333333333],[-70.88125,41.6117058930551],[-70.87739228588104,41.60208333333333],[-70.86458333333333,41.58854895118249],[-70.84791666666666,41.59059002202436],[-70.84314666308603,41.58541666666667],[-70.83125,41.57541733692866],[-70.82070301261979,41.58541666666667],[-70.8201660602305,41.60208333333333],[-70.83125,41.618527143907016],[-70.83222263299783,41.61875],[-70.8306843434759,41.61875],[-70.81458333333333,41.611521409504114],[-70.80506643348677,41.61875],[-70.79288380426239,41.635416666666664],[-70.78125,41.641544194674715],[-70.76458333333333,41.63969976642251],[-70.75214131571187,41.65208333333334],[-70.75195237097869,41.66875],[-70.74791666666667,41.6801306988836],[-70.73616793700793,41.68541666666667],[-70.73125,41.68615301619152],[-70.72195367084964,41.68541666666667],[-70.7181450963978,41.66875],[-70.71458333333334,41.66642776494479],[-70.71274267187785,41.66875],[-70.71282281693736,41.68541666666667],[-70.70011649386984,41.702083333333334],[-70.69791666666667,41.710923277924266],[-70.68125,41.70906378816481],[-70.67728115185264,41.702083333333334],[-70.66458333333334,41.69181182622769],[-70.66212579517772,41.68541666666667],[-70.66143599419652,41.66875],[-70.64791666666667,41.65536723814984],[-70.6400501377203,41.65208333333334],[-70.64791666666667,41.63818294407676],[-70.65411087647219,41.61875],[-70.65569324202312,41.60208333333333],[-70.64895045199496,41.58541666666667],[-70.6621819425255,41.56875],[-70.66080807177624,41.552083333333336],[-70.66458333333334,41.54858233013594],[-70.6769647098776,41.53541666666666],[-70.68125,41.52030880641552],[-70.69791666666667,41.5200151901133],[-70.70001347030157,41.51875],[-70.71458333333334,41.514619863479325],[-70.73125,41.51316327470196],[-70.74402519345426,41.50208333333333],[-70.73125,41.49110537152246],[-70.71458333333334,41.49492456552059],[-70.69791666666667,41.50027347198836],[-70.69562684148971,41.50208333333333],[-70.68125,41.51785841174427],[-70.66458333333334,41.51554117180399],[-70.65743066369478,41.51875],[-70.64791666666667,41.52202894700036],[-70.63125,41.53486979346557],[-70.61458333333333,41.53808925004304],[-70.59791666666666,41.538061251200034],[-70.58125,41.539724622224135],[-70.54791666666667,41.54536636651147]]}},{"type":"Feature","properties":{"kind":"depth","depth_m":5},"geometry":{"type":"LineString","coordinates":[[-70.74791666666667,41.50042758959329],[-70.76458333333333,41.49483235824115],[-70.77439189605431,41.485416666666666],[-70.78125,41.48082727273139],[-70.79791666666667,41.47439435516848],[-70.8041395366485,41.46875],[-70.81458333333333,41.46258825527993],[-70.83125,41.463616201822326],[-70.84365401832181,41.452083333333334],[-70.83125,41.43899073233424],[-70.81458333333333,41.44328580112132],[-70.79791666666667,41.44348414839086],[-70.76458333333333,41.46087749619585],[-70.75538527410815,41.46875],[-70.74791666666667,41.474281318237885],[-70.73388326113157,41.485416666666666],[-70.74791666666667,41.50042758959329]]}},{"type":"Feature","properties":{"kind":"depth","depth_m":5},"geometry":{"type":"LineString","coordinates":[[-71.36458333333333,41.582359766260275],[-71.3937520621601,41.552083333333336],[-71.39347967506922,41.53541666666666],[-71.39103620232524,41.51875],[-71.39791666666666,41.50649345684062],[-71.40404257026792,41.50208333333333],[-71.40736163800193,41.485416666666666],[-71.39791666666666,41.471158772387525],[-71.38770068565124,41.46875],[-71.38125,41.468464306500934],[-71.36458333333333,41.4804702971253],[-71.36022808719544,41.485416666666666],[-71.36012155599933,41.50208333333333],[-71.36072987324208,41.51875],[-71.35492554267418,41.53541666666666],[-71.35263063348128,41.552083333333336],[-71.35303767130337,41.56875],[-71.36458333333333,41.582359766260275]]}},{"type":"Feature","properties":{"kind":"depth","depth_m":5},"geometry":{"type":"LineString","coordinates":[[-71.31458333333333,41.634469692660964],[-71.32994605377964,41.61875],[-71.345198770425,41.60208333333333],[-71.34405165173976,41.58541666666667],[-71.33125,41.57277482099028],[-71.31695057235429,41.58541666666667],[-71.31458333333333,41.58631627116506],[-71.30199137609628,41.60208333333333],[-71.30330673467734,41.61875],[-71.31458333333333,41.634469692660964]]}},{"type":"Feature","properties":{"kind":"depth","depth_m":5},"geometry":{"type":"LineString","coordinates":[[-71.34791666666666,41.67252871329954],[-71.34909976735288,41.66875],[-71.36458333333333,41.65393669008438],[-71.3710093234807,41.65208333333334],[-71.36458333333333,41.64694299965136],[-71.36248145180622,41.635416666666664],[-71.34791666666666,41.62097561461318],[-71.33125,41.62969582835888],[-71.32418178485563,41.635416666666664],[-71.33125,41.642331941538],[-71.3358398350489,41.65208333333334],[-71.34300767823812,41.66875],[-71.34791666666666,41.67252871329954]]}},{"type":"Feature","properties":{"kind":"depth","depth_m":5},"geometry":{"type":"LineString","coordinates":[[-70.54791666666667,41.93190495849758],[-70.55293583582909,41.93541666666667],[-70.56458333333333,41.94545912351943],[-70.58125,41.95202977169905],[-70.59791666666666,41.95035215734665],[-70.61458333333333,41.95017192602088],[-70.62264989988891,41.952083333333334],[-70.6288801388706,41.96875],[-70.63125,41.969728196180476],[-70.64791666666667,41.97157950776793],[-70.6626839766348,41.985416666666666],[-70.65294920100747,42.00208333333333],[-70.64791666666667,42.00868149927961],[-70.64325855767828,42.00208333333333],[-70.63125,41.994632108222454],[-70.61458333333333,41.9895409227053],[-70.59791666666666,42.00076177297738],[-70.59761033936088,42.00208333333333],[-70.59791666666666,42.002569256641756],[-70.61458333333333,42.02533917387152],[-70.62447851530867,42.03541666666666]]}},{"type":"Feature","properties":{"kind":"depth_label","depth_m":5},"geometry":{"type":"Point","coordinates":[-71.31086597824455,41.552083333333336]}},{"type":"Feature","properties":{"kind":"depth_label","depth_m":5},"geometry":{"type":"Point","coordinates":[-70.7856136039881,41.35208333333333]}},{"type":"Feature","properties":{"kind":"depth_label","depth_m":5},"geometry":{"type":"Point","coordinates":[-71.86458333333333,41.08353767136636]}},{"type":"Feature","properties":{"kind":"depth","depth_m":10},"geometry":{"type":"LineString","coordinates":[[-72.09791666666666,40.97209013811196],[-72.08125,40.973705115904274],[-72.06458333333333,40.97663729866343],[-72.05287807109627,40.985416666666666],[-72.04791666666667,40.988395352709105],[-72.03125,40.98916340657173],[-72.01458333333333,40.994922675357465],[-72.00603504408461,41.00208333333333],[-71.99791666666667,41.003313636199785],[-71.98125,41.00658652868202],[-71.96635008300767,41.01875],[-71.96458333333334,41.01939331758581],[-71.94791666666667,41.02402390110544],[-71.93125,41.02327942943278],[-71.91458333333334,41.03085552118331],[-71.90717595648341,41.03541666666666],[-71.89791666666666,41.037670537447156],[-71.88125,41.03946205617782],[-71.86458333333333,41.05537574841278],[-71.84960797958203,41.06875],[-71.85226271990372,41.08541666666667],[-71.86458333333333,41.09121491355132],[-71.88125,41.095474182947285],[-71.89791666666666,41.10407312552853],[-71.91458333333334,41.10802671076674],[-71.9174176114717,41.10208333333333],[-71.91923865954777,41.08541666666667],[-71.93125,41.07657275946908],[-71.94791666666667,41.08141229115363],[-71.96148548981772,41.06875],[-71.96244922726062,41.052083333333336],[-71.96458333333334,41.050395543998306],[-71.98125,41.05092193656843],[-71.99791666666667,41.049289580175646],[-72.01458333333333,41.035915213050345],[-72.0161881711084,41.03541666666666],[-72.03125,41.033219872563116],[-72.04791666666667,41.034058061060264],[-72.05039355960861,41.03541666666666],[-72.05761547124308,41.052083333333336],[-72.06458333333333,41.059164530997236],[-72.06881884945949,41.06875],[-72.06458333333333,41.077127469839546],[-72.05845375348385,41.08541666666667],[-72.06458333333333,41.09766311398878],[-72.06578705774272,41.10208333333333],[-72.08125,41.11580304103149],[-72.09079794878203,41.11875],[-72.09791666666666,41.12390295867337]]}},{"type":"Feature","properties":{"kind":"depth","depth_m":10},"geometry":{"type":"LineString","coordinates":[[-71.56458333333333,41.23191264569144],[-71.58125,41.22465370705927],[-71.5903047009267,41.202083333333334],[-71.59791666666666,41.19670692531786],[-71.60899944862089,41.18541666666667],[-71.61458333333333,41.17154568063458],[-71.61628064813495,41.16875],[-71.62275011255208,41.15208333333334],[-71.61458333333333,41.14233997570949],[-71.59791666666666,41.13771255461225],[-71.58125,41.13886483097267],[-71.56458333333333,41.13741980630171],[-71.54791666666667,41.14370239107511],[-71.5417167687032,41.15208333333334],[-71.54546664336989,41.16875],[-71.54791666666667,41.17372416168315],[-71.55713293545882,41.18541666666667],[-71.5517075700258,41.202083333333334],[-71.55039658115498,41.21875],[-71.56458333333333,41.23191264569144]]}},{"type":"Feature","properties":{"kind":"depth","depth_m":10},"geometry":{"type":"LineString","coordinates":[[-72.09791666666666,41.296937523346855],[-72.0875247726234,41.302083333333336],[-72.0820570657388,41.31875],[-72.08125,41.324564860677796],[-72.0796120267208,41.31875],[-72.06971669961635,41.302083333333336],[-72.06458333333333,41.29949484705161],[-72.05838383632266,41.302083333333336],[-72.04791666666667,41.30465599501205],[-72.03125,41.302155693953324],[-72.01458333333333,41.305727171648186],[-72.00118835069082,41.302083333333336],[-72.00805351790508,41.28541666666666],[-72.01458333333333,41.28305208972405],[-72.02899656980355,41.26875],[-72.03992232796254,41.25208333333333],[-72.03125,41.249115842064995],[-72.00464225192555,41.25208333333333],[-71.99791666666667,41.25545006739257],[-71.98125,41.26276751911164],[-71.96975110453874,41.26875],[-71.98125,41.282615175603596],[-71.98664540522708,41.28541666666666],[-71.99693602398835,41.302083333333336],[-71.98125,41.312698802434234],[-71.96458333333334,41.31198658207401],[-71.94791666666667,41.31639958614105],[-71.93125,41.31196098197785],[-71.91458333333334,41.31665187713635],[-71.89791666666666,41.31126777481489],[-71.88467499787384,41.302083333333336],[-71.88125,41.30032815825484],[-71.86458333333333,41.30110934626761],[-71.8590178369468,41.302083333333336],[-71.84791666666666,41.304858852666015],[-71.83125,41.310784645739645],[-71.81458333333333,41.314968728928456],[-71.79791666666667,41.31849686251069],[-71.78125,41.31841759220648],[-71.76458333333333,41.32414247033298],[-71.74791666666667,41.32497623650603],[-71.73125,41.32706963268811],[-71.71458333333334,41.32561639962467],[-71.69791666666667,41.329337188132726],[-71.69093426459877,41.33541666666667],[-71.68125,41.34044485556575],[-71.66458333333334,41.340520954446006],[-71.64791666666666,41.34430364384044],[-71.6294155298771,41.35208333333333],[-71.61458333333333,41.35585859813466],[-71.59791666666666,41.354509453932664],[-71.58125,41.354784167527],[-71.56458333333333,41.3590824985466],[-71.54791666666667,41.36611217486886],[-71.53125,41.36502001989885],[-71.51458333333333,41.354718812607864],[-71.49791666666667,41.35379792318256],[-71.48125,41.35591759884144],[-71.46458333333334,41.38234355787862],[-71.45348007946735,41.40208333333334],[-71.45085716108035,41.41875],[-71.44791666666667,41.43026714477312],[-71.44314799039789,41.43541666666667],[-71.43125,41.44143702137824],[-71.42013703914351,41.452083333333334],[-71.41607304305401,41.46875],[-71.41458333333334,41.480274544150305],[-71.40871758674689,41.46875],[-71.41045528452882,41.452083333333334],[-71.39791666666666,41.44285128657026],[-71.39066596901247,41.452083333333334],[-71.38125,41.46590639037112],[-71.37848827603185,41.46875],[-71.36458333333333,41.47869374703365],[-71.35866384642033,41.485416666666666],[-71.35821079911254,41.51875],[-71.35069422603797,41.53541666666666],[-71.3503533550469,41.552083333333336],[-71.34868364273234,41.56875],[-71.34791666666666,41.58238415704901],[-71.33125,41.568802415101224],[-71.31458333333333,41.58352269432942],[-71.30249481397769,41.56875],[-71.31250166693034,41.552083333333336],[-71.31458333333333,41.543153650002125],[-71.31871198358579,41.53541666666666],[-71.33282550625886,41.51875],[-71.32837023462532,41.485416666666666],[-71.34791666666666,41.47487404615973],[-71.35485398789858,41.46875],[-71.35582493218219,41.452083333333334],[-71.34791666666666,41.43928014591113],[-71.33125,41.448053101979234],[-71.31458333333333,41.45107573115801],[-71.3128112604704,41.452083333333334],[-71.29791666666667,41.457979249209174],[-71.2849793202336,41.46875],[-71.28125,41.47426083262395],[-71.26458333333333,41.47891161976019],[-71.24791666666667,41.47142676799245],[-71.23125,41.48375919853171],[-71.22722148589838,41.485416666666666],[-71.21458333333334,41.49988681454003],[-71.20805417902939,41.485416666666666],[-71.19791666666667,41.47124896260545],[-71.19694270187296,41.46875],[-71.18125,41.457557703134064],[-71.16458333333334,41.46256178408208],[-71.15589978449225,41.46875],[-71.14791666666666,41.47167039103442],[-71.13256633198462,41.485416666666666],[-71.13125,41.48761323705502],[-71.09791666666666,41.49218746941693],[-71.08125,41.49523899577148],[-71.06458333333333,41.49571050090626],[-71.04791666666667,41.47958170413946],[-71.037506652258,41.46875],[-71.03125,41.46437625012783],[-71.0275987052189,41.46875],[-71.021739923451,41.485416666666666],[-71.01458333333333,41.49682565372656],[-70.99791666666667,41.50225661788871],[-70.98125,41.49524247524894],[-70.97473601990637,41.50208333333333],[-70.96458333333334,41.51078818671382],[-70.94791666666667,41.50660567278343],[-70.94113646435645,41.51875],[-70.92523150408411,41.53541666666666],[-70.91458333333334,41.55187593677961],[-70.91282570121223,41.552083333333336],[-70.89791666666667,41.55638672922593],[-70.88773972125479,41.56875],[-70.88125,41.58202731178777],[-70.86458333333333,41.56902700120568],[-70.84791666666666,41.56449929037328],[-70.83125,41.562864279129485],[-70.81458333333333,41.56586092588231],[-70.81106400785619,41.56875],[-70.80609193132207,41.58541666666667],[-70.79791666666667,41.60036085161625],[-70.79410611210741,41.60208333333333],[-70.78125,41.6127995200964],[-70.7773386141851,41.61875],[-70.76458333333333,41.62690445574806],[-70.74791666666667,41.63223070872552],[-70.73678093232027,41.635416666666664],[-70.73125,41.636641925148176],[-70.71458333333334,41.63164170088843],[-70.71014455345228,41.635416666666664],[-70.69791666666667,41.6486673648442],[-70.69195992396118,41.65208333333334],[-70.69164300953622,41.66875],[-70.68125,41.67428604264107],[-70.67495415275329,41.66875],[-70.6583110253315,41.65208333333334],[-70.65838899240707,41.635416666666664],[-70.66458333333334,41.62382065374135],[-70.67454784058185,41.61875],[-70.66458333333334,41.61288939651509],[-70.66151772274567,41.60208333333333],[-70.65581408516638,41.58541666666667],[-70.66458333333334,41.57430587847969],[-70.67076080614939,41.56875],[-70.66458333333334,41.55325575154873],[-70.66440924402407,41.552083333333336],[-70.68010533093415,41.53541666666666],[-70.68125,41.53138111719704],[-70.69791666666667,41.52861831343661],[-70.71458333333334,41.51866159124681],[-70.73125,41.51781943164762],[-70.74791666666667,41.5056635714369],[-70.75120465680195,41.50208333333333],[-70.76458333333333,41.498253410220926],[-70.77795569194227,41.485416666666666],[-70.78125,41.48321213935987],[-70.79791666666667,41.48007926331312],[-70.8104071160596,41.46875],[-70.81458333333333,41.466286069926205],[-70.83125,41.466065855582876],[-70.84628870978274,41.452083333333334],[-70.83125,41.43620978158435],[-70.81458333333333,41.44018900100895],[-70.79791666666667,41.44184219816513],[-70.78125,41.447890187580846],[-70.77769269849756,41.452083333333334],[-70.76458333333333,41.4589192793118],[-70.75309733683645,41.46875],[-70.731747796461,41.485416666666666],[-70.73125,41.48649206975178],[-70.71458333333334,41.49261660707333],[-70.69791666666667,41.49571157622126],[-70.68985515969145,41.50208333333333],[-70.68125,41.5115253981268],[-70.66458333333334,41.51156678300704],[-70.64791666666667,41.5189756894689],[-70.63125,41.523778290652565],[-70.61458333333333,41.52642530030826],[-70.59791666666666,41.52118976183251],[-70.58125,41.520307463269255],[-70.56923641413663,41.53541666666666],[-70.56458333333333,41.53702612452191],[-70.54791666666667,41.53784334056025]]}},{"type":"Feature","properties":{"kind":"depth","depth_m":10},"geometry":{"type":"LineString","coordinates":[[-70.81458333333333,41.287133484697684],[-70.81653387203944,41.28541666666666],[-70.8188164130957,41.26875],[-70.83125,41.26024374289911],[-70.83762060032828,41.25208333333333],[-70.83125,41.24729884709187],[-70.81458333333333,41.23914259434833],[-70.79791666666667,41.24943724361861],[-70.79548329798611,41.25208333333333],[-70.79667764131682,41.26875],[-70.79791666666667,41.273289364786486],[-70.80597232485641,41.28541666666666],[-70.81458333333333,41.287133484697684]]}},{"type":"Feature","properties":{"kind":"depth","depth_m":10},"geometry":{"type":"LineString","coordinates":[[-71.93125,41.29900611259149],[-71.94791666666667,41.29560669251243],[-71.96458333333334,41.294240576780005],[-71.97737302191243,41.28541666666666],[-71.96458333333334,41.27546192094577],[-71.94791666666667,41.279503276194475],[-71.93125,41.276430805147406],[-71.91751941927824,41.28541666666666],[-71.93125,41.29900611259149]]}},{"type":"Feature","properties":{"kind":"depth","depth_m":10},"geometry":{"type":"LineString","coordinates":[[-70.54791666666667,41.4702101878371],[-70.56458333333333,41.47874111663783],[-70.58125,41.4728987550011],[-70.59791666666666,41.484034682181786],[-70.61458333333333,41.48591155654302],[-70.63125,41.477434180894214],[-70.64527351930796,41.46875],[-70.66458333333334,41.46443349437605],[-70.67652525811391,41.452083333333334],[-70.68125,41.44874601833432],[-70.69791666666667,41.44087024798109],[-70.7037311738872,41.43541666666667],[-70.71543476679243,41.41875],[-70.73181371496979,41.40208333333334],[-70.74707460440428,41.385416666666664],[-70.76410037979248,41.36875],[-70.76458333333333,41.366190438971564],[-70.78125,41.35614465961562],[-70.79791666666667,41.360616440758044],[-70.81458333333333,41.362256087845665],[-70.83125,41.36201257401673],[-70.84634501288532,41.35208333333333],[-70.8349813989897,41.33541666666667],[-70.83125,41.33107889808355],[-70.81458333333333,41.31933568008653],[-70.8127043149172,41.31875],[-70.8030887187163,41.302083333333336],[-70.79791666666667,41.28862904532747],[-70.78125,41.287479604733996],[-70.76458333333333,41.29192283904317],[-70.75067958783623,41.31875],[-70.74791666666667,41.31970882329744],[-70.73125,41.32901217343969],[-70.71842267641526,41.33541666666667],[-70.69791666666667,41.33816633036663],[-70.68125,41.337291581957956],[-70.66458333333334,41.33797372724949],[-70.64791666666667,41.34064325762987],[-70.63125,41.33893087248373],[-70.61458333333333,41.339091217279545],[-70.59791666666666,41.339838903043386],[-70.58125,41.33975743592672],[-70.54791666666667,41.33858498536029]]}},{"type":"Feature","properties":{"kind":"depth","depth_m":10},"geometry":{"type":"LineString","coordinates":[[-70.91458333333334,41.45598753803352],[-70.9252173480377,41.452083333333334],[-70.92011145039287,41.43541666666667],[-70.93125,41.43406365203794],[-70.94791666666667,41.42426629341723],[-70.94948744851848,41.41875],[-70.94791666666667,41.415611229980755],[-70.93125,41.40517210708804],[-70.91458333333334,41.4176732565781],[-70.9037477431805,41.41875],[-70.89791666666667,41.4224298222185],[-70.88125,41.42174390125225],[-70.86458333333333,41.42245679166657],[-70.83530822002017,41.43541666666667],[-70.84791666666666,41.445235954942376],[-70.86458333333333,41.4490260748723],[-70.88125,41.44770338641749],[-70.89791666666667,41.439558625613664],[-70.9057114579503,41.452083333333334],[-70.91458333333334,41.45598753803352]]}},{"type":"Feature","properties":{"kind":"depth","depth_m":10},"geometry":{"type":"LineString","coordinates":[[-71.39543617947201,41.53541666666666],[-71.39310133123743,41.51875],[-71.39791666666666,41.51017218263383],[-71.40915252230155,41.50208333333333],[-71.41458333333334,41.4880502524814],[-71.41633520276264,41.50208333333333],[-71.41458333333334,41.50798320831621],[-71.40701525130322,41.51875],[-71.40664504399577,41.53541666666666],[-71.39791666666666,41.55163601844823],[-71.39543617947201,41.53541666666666]]}},{"type":"Feature","properties":{"kind":"depth","depth_m":10},"geometry":{"type":"LineString","coordinates":[[-71.3806600443848,41.60208333333333],[-71.38125,41.599045011802964],[-71.3899871148521,41.58541666666667],[-71.39791666666666,41.57706284834165],[-71.4003911631955,41.58541666666667],[-71.39791666666666,41.59304403187426],[-71.38411148682609,41.60208333333333],[-71.38125,41.605567041873805],[-71.3806600443848,41.60208333333333]]}},{"type":"Feature","properties":{"kind":"depth","depth_m":10},"geometry":{"type":"LineString","coordinates":[[-71.29173156726162,41.635416666666664],[-71.28179485978715,41.61875],[-71.28287135278153,41.60208333333333],[-71.29791666666667,41.58937320555105],[-71.30062769206569,41.60208333333333],[-71.30132366202683,41.61875],[-71.30678490910444,41.635416666666664],[-71.29791666666667,41.63990383765986],[-71.29173156726162,41.635416666666664]]}},{"type":"Feature","properties":{"kind":"depth","depth_m":10},"geometry":{"type":"LineString","coordinates":[[-71.23585149293598,41.65208333333334],[-71.24791666666667,41.64808797331098],[-71.2589086751,41.635416666666664],[-71.26458333333333,41.62944498441395],[-71.27457012110393,41.635416666666664],[-71.26458333333333,41.63915624849564],[-71.25041922173565,41.65208333333334],[-71.24791666666667,41.65673163410295],[-71.23585149293598,41.65208333333334]]}},{"type":"Feature","properties":{"kind":"depth","depth_m":10},"geometry":{"type":"LineString","coordinates":[[-70.54791666666667,41.93506746691476],[-70.56458333333333,41.94935632136403],[-70.57167042190297,41.952083333333334],[-70.58125,41.96044902036195],[-70.5932737481539,41.952083333333334],[-70.59791666666666,41.951620206151006],[-70.60662206258476,41.952083333333334],[-70.60356986894435,41.96875],[-70.59791666666666,41.978626774359384],[-70.59607759207658,41.985416666666666],[-70.59323466005854,42.00208333333333],[-70.59791666666666,42.00951034391366],[-70.61458333333333,42.03243520522797],[-70.61751085747927,42.03541666666666]]}},{"type":"Feature","properties":{"kind":"depth_label","depth_m":10},"geometry":{"type":"Point","coordinates":[-71.22722148589838,41.485416666666666]}},{"type":"Feature","properties":{"kind":"depth_label","depth_m":10},"geometry":{"type":"Point","coordinates":[-71.91458333333334,41.10802671076674]}},{"type":"Feature","properties":{"kind":"depth_label","depth_m":10},"geometry":{"type":"Point","coordinates":[-70.84634501288532,41.35208333333333]}},{"type":"Feature","properties":{"kind":"depth","depth_m":20},"geometry":{"type":"LineString","coordinates":[[-72.09791666666666,40.94567629713865],[-72.08032964381374,40.952083333333334],[-72.06458333333333,40.956222030295585],[-72.03125,40.96226338850642],[-72.02215995493451,40.96875],[-72.01458333333333,40.97523323735729],[-71.99791666666667,40.985124951622915],[-71.96458333333334,40.99299172756201],[-71.93125,40.99521650284482],[-71.91458333333334,40.99552699593255],[-71.90649212510371,41.00208333333333],[-71.89014035682645,41.01875],[-71.88125,41.029256892782605],[-71.8692157572452,41.03541666666666],[-71.86458333333333,41.03676119507516],[-71.84852371876602,41.052083333333336],[-71.84791666666666,41.05236497262862],[-71.8476224506884,41.052083333333336],[-71.84791666666666,41.05139799220831],[-71.86307434323685,41.03541666666666],[-71.84791666666666,41.0275321078345],[-71.83125,41.026912004848896],[-71.81458333333333,41.02750502858019],[-71.79791666666667,41.029333883815035],[-71.78125,41.03288569305627],[-71.76458333333333,41.04193780941989],[-71.75017302990369,41.052083333333336],[-71.74791666666667,41.054335653712826],[-71.74196310658367,41.06875],[-71.73125,41.08357196901347],[-71.72749619627562,41.10208333333333],[-71.73125,41.10809208182837],[-71.74791666666667,41.11236456702707],[-71.75207553585582,41.11875],[-71.76458333333333,41.12798744226236],[-71.78125,41.131489353792894],[-71.79559597488627,41.135416666666664],[-71.79852408967207,41.135416666666664],[-71.81458333333333,41.127152023531224],[-71.82992311088283,41.135416666666664],[-71.83125,41.135641915407916],[-71.83760733370302,41.135416666666664],[-71.84791666666666,41.13463407171662],[-71.86458333333333,41.13831293667463],[-71.86665350145529,41.135416666666664],[-71.88125,41.123172520888254],[-71.89791666666666,41.12393178887847],[-71.91458333333334,41.126819307917096],[-71.93125,41.1312116117861],[-71.94791666666667,41.120919122782084],[-71.94992011357874,41.11875],[-71.94791666666667,41.11098183502974],[-71.93125,41.10464958295485],[-71.93018160757572,41.10208333333333],[-71.93125,41.086299719075065],[-71.94791666666667,41.099916703568844],[-71.95319288410124,41.08541666666667],[-71.96458333333334,41.075781830111964],[-71.98125,41.068717567642906],[-71.99608626370616,41.08541666666667],[-71.99791666666667,41.08788465008368],[-72.01458333333333,41.09374670510327],[-72.01836131060861,41.10208333333333],[-72.03125,41.1094473008201],[-72.04791666666667,41.10959294780441],[-72.06458333333333,41.11776753874333],[-72.08609877814929,41.135416666666664],[-72.09791666666666,41.151148332255026]]}},{"type":"Feature","properties":{"kind":"depth","depth_m":20},"geometry":{"type":"LineString","coordinates":[[-71.99791666666667,41.13872368299579],[-72.01458333333333,41.137503898172625],[-72.017773414418,41.135416666666664],[-72.01458333333333,41.12799445038262],[-71.99791666666667,41.115864045465955],[-71.99421917439844,41.11875],[-71.99137510498986,41.135416666666664],[-71.99791666666667,41.13872368299579]]}},{"type":"Feature","properties":{"kind":"depth","depth_m":20},"geometry":{"type":"LineString","coordinates":[[-71.56458333333333,41.24154183620464],[-71.58125,41.23801366524015],[-71.58531208281012,41.235416666666666],[-71.59041521359302,41.21875],[-71.59791666666666,41.20428560077865],[-71.61582820916108,41.18541666666667],[-71.62581886008628,41.16875],[-71.63125,41.160661273091556],[-71.64359611995962,41.15208333333334],[-71.64791666666666,41.146709673847354],[-71.65303166526344,41.135416666666664],[-71.64791666666666,41.12291500083298],[-71.63125,41.125244699653265],[-71.61458333333333,41.12299478970058],[-71.59791666666666,41.128719827701765],[-71.58199021427409,41.135416666666664],[-71.58068143264381,41.135416666666664],[-71.56458333333333,41.12693943428825],[-71.54791666666667,41.133466015690956],[-71.54708573863171,41.135416666666664],[-71.53526379249841,41.15208333333334],[-71.53832188233194,41.16875],[-71.54600990836933,41.18541666666667],[-71.5412687758261,41.202083333333334],[-71.54171317439047,41.21875],[-71.56062021510185,41.235416666666666],[-71.56458333333333,41.24154183620464]]}},{"type":"Feature","properties":{"kind":"depth","depth_m":20},"geometry":{"type":"LineString","coordinates":[[-70.54791666666667,41.483584173808104],[-70.58125,41.48393949318308],[-70.58355845793187,41.485416666666666],[-70.59791666666666,41.500176031023614],[-70.61458333333333,41.49621873456693],[-70.63125,41.49497133370692],[-70.63847349605318,41.485416666666666],[-70.64791666666667,41.481136127505835],[-70.66458333333334,41.47088307191635],[-70.68125,41.48076863078378],[-70.69368103548388,41.46875],[-70.68125,41.45302278466999],[-70.6810359884015,41.452083333333334],[-70.69791666666667,41.447021533088076],[-70.7102895599473,41.43541666666667],[-70.71458333333334,41.429205443661786],[-70.72377678040802,41.41875],[-70.73125,41.41106426545308],[-70.74385322130958,41.40208333333334],[-70.74791666666667,41.396578403253805],[-70.76222648500628,41.385416666666664],[-70.76458333333333,41.38330089045656],[-70.78125,41.37263495322436],[-70.79189617498996,41.36875],[-70.81458333333333,41.36671065687217],[-70.83125,41.36631526587628],[-70.84791666666666,41.36105052971279],[-70.86227236879812,41.35208333333333],[-70.85277204729339,41.33541666666667],[-70.84791666666666,41.331241227143565],[-70.83814604544416,41.31875],[-70.83304384030075,41.302083333333336],[-70.84791666666666,41.28961960022046],[-70.85149350000339,41.28541666666666],[-70.85433662875218,41.26875],[-70.8652797498421,41.25208333333333],[-70.86458333333333,41.24824563260048],[-70.8513533205031,41.235416666666666],[-70.86458333333333,41.22588991459093],[-70.86652341112342,41.21875],[-70.8656518816483,41.202083333333334],[-70.86458333333333,41.2015924456323],[-70.84791666666666,41.21395076089709],[-70.84353815369923,41.21875],[-70.83125,41.23013553477509],[-70.81458333333333,41.23120976310971],[-70.8088742779988,41.235416666666666],[-70.79791666666667,41.23771929510798],[-70.78470736369052,41.25208333333333],[-70.78125,41.25697105910911],[-70.76639632332284,41.26875],[-70.75028917610182,41.28541666666666],[-70.74791666666667,41.29293162179823],[-70.73893456058775,41.302083333333336],[-70.73125,41.30830717107771],[-70.71458333333334,41.31820956028323],[-70.69791666666667,41.3177275885195],[-70.68125,41.31408677289717],[-70.66458333333334,41.313833434433036],[-70.64791666666667,41.31401906489391],[-70.63125,41.31369220582513],[-70.61458333333333,41.31473064582218],[-70.59791666666666,41.31443085303702],[-70.58125,41.31210497744669],[-70.56458333333333,41.30908774308246],[-70.54791666666667,41.30680497509191]]}},{"type":"Feature","properties":{"kind":"depth","depth_m":20},"geometry":{"type":"LineString","coordinates":[[-72.09791666666666,41.27399406406757],[-72.08395129362188,41.26875],[-72.07570897106359,41.26875],[-72.06458333333333,41.27030221592022],[-72.04791666666667,41.25284486136307],[-72.04768536315169,41.25208333333333],[-72.03125,41.24645949197779],[-72.01458333333333,41.247487440906895],[-71.99791666666667,41.249131606182395],[-71.9897516410077,41.25208333333333],[-71.98125,41.2569087045576],[-71.96458333333334,41.26263576464731],[-71.95300426475559,41.26875],[-71.94791666666667,41.27081549833534],[-71.93125,41.271741689527275],[-71.91458333333334,41.27876972430835],[-71.8954925799152,41.28541666666666],[-71.88125,41.29121045089579],[-71.86458333333333,41.294746177186184],[-71.84791666666666,41.297114051089004],[-71.83125,41.30380182449521],[-71.79791666666667,41.306682803047465],[-71.78125,41.30584505621734],[-71.76458333333333,41.305528744435314],[-71.74791666666667,41.31035963694005],[-71.73125,41.31712234279825],[-71.71458333333334,41.31614135631775],[-71.69791666666667,41.31349781763003],[-71.68125,41.316541630700186],[-71.66458333333334,41.32669751051889],[-71.64791666666666,41.32355108861085],[-71.63125,41.317975969522074],[-71.62514185181013,41.31875],[-71.61458333333333,41.32172634280371],[-71.59791666666666,41.32743363472456],[-71.56458333333333,41.335202388190275],[-71.54791666666667,41.337678592001055],[-71.53125,41.333995219277895],[-71.51458333333333,41.32934866005172],[-71.49791666666667,41.319888248701616],[-71.49333964177438,41.31875],[-71.48125,41.314411928070975],[-71.46458333333334,41.310409976086646],[-71.45287734935599,41.31875],[-71.46135746006881,41.33541666666667],[-71.46458333333334,41.34598108186276],[-71.46579569769676,41.35208333333333],[-71.46031594265544,41.36875],[-71.4526604483914,41.385416666666664],[-71.44911857787318,41.40208333333334],[-71.44791666666667,41.409991770080545],[-71.44151349855412,41.41875],[-71.43125,41.43016771733182],[-71.42324984446687,41.43541666666667],[-71.41458333333334,41.4426852129413],[-71.39791666666666,41.43841422539561],[-71.38718117415861,41.452083333333334],[-71.38125,41.460790558111476],[-71.37351976121708,41.46875],[-71.36458333333333,41.47514064685034],[-71.35553536487008,41.485416666666666],[-71.35459957348391,41.50208333333333],[-71.35317265085347,41.51875],[-71.34791666666666,41.52888822605754],[-71.33959898504071,41.53541666666666],[-71.33125,41.54984470859585],[-71.32620043477282,41.53541666666666],[-71.34021141312724,41.51875],[-71.3368936521782,41.50208333333333],[-71.33486733720986,41.485416666666666],[-71.34791666666666,41.47794298094106],[-71.35833047809193,41.46875],[-71.3637807034185,41.452083333333334],[-71.36145043408264,41.43541666666667],[-71.34791666666666,41.42618481656378],[-71.33839946808494,41.43541666666667],[-71.33125,41.43977170995077],[-71.31458333333333,41.44125268237993],[-71.29791666666667,41.44921700433934],[-71.29006075725437,41.452083333333334],[-71.28125,41.45576100737893],[-71.27755725638752,41.452083333333334],[-71.26458333333333,41.44283668379875],[-71.24791666666667,41.45172916855377],[-71.23125,41.444582132799425],[-71.21458333333334,41.443285166430535],[-71.20487275727349,41.43541666666667],[-71.19791666666667,41.43152018423567],[-71.19168442510649,41.43541666666667],[-71.18125,41.43868097592083],[-71.16458333333334,41.43553191583376],[-71.14791666666666,41.4504412704419],[-71.14444567601605,41.452083333333334],[-71.13125,41.45701379631306],[-71.12015768603962,41.452083333333334],[-71.13125,41.43568108848144],[-71.13125,41.43409738763848],[-71.11458333333333,41.42657852765424],[-71.09791666666666,41.424714095238095],[-71.08125,41.4297969112459],[-71.06458333333333,41.42748974195049],[-71.05114079505333,41.41875],[-71.04791666666667,41.41697088185949],[-71.03310390797668,41.40208333333334],[-71.03125,41.400534484331764],[-71.01458333333333,41.407163985810165],[-71.01227570450489,41.41875],[-71.01458333333333,41.42423679076183],[-71.02231362371563,41.43541666666667],[-71.01727382864996,41.452083333333334],[-71.01458333333333,41.45627575440679],[-70.99791666666667,41.45337983210998],[-70.99781824262547,41.452083333333334],[-70.98246651415992,41.43541666666667],[-70.98333769964755,41.41875],[-70.98125,41.402589761544334],[-70.97543307485776,41.41875],[-70.9800082493069,41.43541666666667],[-70.96645282446897,41.452083333333334],[-70.98114501074143,41.46875],[-70.96458333333334,41.476336537507926],[-70.94791666666667,41.48060876921659],[-70.93976637667802,41.485416666666666],[-70.93125,41.49573561338329],[-70.91458333333334,41.49458578196644],[-70.89791666666667,41.48713503315651],[-70.89601028419428,41.485416666666666],[-70.89791666666667,41.484128956870855],[-70.90319058824734,41.46875],[-70.91458333333334,41.464021317440846],[-70.93125,41.46853222668727],[-70.93911119082556,41.452083333333334],[-70.94791666666667,41.44324650951209],[-70.95888000885748,41.43541666666667],[-70.96078115553168,41.41875],[-70.98118932390508,41.40208333333334],[-70.96878551792318,41.385416666666664],[-70.97029975520249,41.36875],[-70.96458333333334,41.365474804013566],[-70.95477973142737,41.36875],[-70.9458817025128,41.385416666666664],[-70.93125,41.39485237734758],[-70.91899328195412,41.40208333333334],[-70.89791666666667,41.4068156986311],[-70.88125,41.4111024886579],[-70.86458333333333,41.41357943462677],[-70.84861567284092,41.40208333333334],[-70.84791666666666,41.40128878883845],[-70.83125,41.41092793315005],[-70.82384080806128,41.41875],[-70.81458333333333,41.430161936481404],[-70.81135898986918,41.43541666666667],[-70.79791666666667,41.43855829771369],[-70.78125,41.43903713368219],[-70.77018211246174,41.452083333333334],[-70.76458333333333,41.4550028455437],[-70.74791666666667,41.46919791711231],[-70.73125,41.47316232623977],[-70.72104798130972,41.485416666666666],[-70.71458333333334,41.488000690178815],[-70.69791666666667,41.48658778468707],[-70.68125,41.49453089691076],[-70.67177232050302,41.50208333333333],[-70.66458333333334,41.50361800541314],[-70.64791666666667,41.50812264777815],[-70.63125,41.50501981034284],[-70.61458333333333,41.509378297582],[-70.59791666666666,41.5037864945007],[-70.59393466201112,41.50208333333333],[-70.58125,41.49009779254124],[-70.56458333333333,41.49103378315569],[-70.55020948063311,41.50208333333333],[-70.54791666666667,41.502998659073974]]}},{"type":"Feature","properties":{"kind":"depth","depth_m":20},"geometry":{"type":"LineString","coordinates":[[-70.76458333333333,41.42938549870189],[-70.78125,41.4286579025859],[-70.79791666666667,41.42125812777941],[-70.80214607768855,41.41875],[-70.79791666666667,41.41152861892303],[-70.79089050705808,41.40208333333334],[-70.78125,41.3957719721249],[-70.7727303670925,41.40208333333334],[-70.76458333333333,41.406459238208306],[-70.74809659248355,41.41875],[-70.76458333333333,41.42938549870189]]}},{"type":"Feature","properties":{"kind":"depth","depth_m":20},"geometry":{"type":"LineString","coordinates":[[-70.54791666666667,41.95702144875907],[-70.5623019526436,41.96875],[-70.56458333333333,41.97251485944478],[-70.57477833109763,41.985416666666666],[-70.58125,41.99207254280931],[-70.58448330145389,42.00208333333333],[-70.59189583588085,42.01875],[-70.59508717824443,42.03541666666666]]}},{"type":"Feature","properties":{"kind":"depth_label","depth_m":20},"geometry":{"type":"Point","coordinates":[-71.20487275727349,41.43541666666667]}},{"type":"Feature","properties":{"kind":"depth_label","depth_m":20},"geometry":{"type":"Point","coordinates":[-71.76458333333333,41.12798744226236]}},{"type":"Feature","properties":{"kind":"depth_label","depth_m":20},"geometry":{"type":"Point","coordinates":[-70.85149350000339,41.28541666666666]}},{"type":"Feature","properties":{"kind":"depth","depth_m":40},"geometry":{"type":"LineString","coordinates":[[-71.89791666666666,40.840727206748745],[-71.91458333333334,40.83754286783529],[-71.94791666666667,40.838071206117704],[-71.96458333333334,40.84342873925368],[-71.97111933696472,40.83541666666667],[-71.96458333333334,40.8333632204692],[-71.94791666666667,40.83212030813541],[-71.93125,40.82749569951605],[-71.91458333333334,40.825154627312216],[-71.89791666666666,40.829229962325115],[-71.8908021590986,40.83541666666667],[-71.89791666666666,40.840727206748745]]}},{"type":"Feature","properties":{"kind":"depth","depth_m":40},"geometry":{"type":"LineString","coordinates":[[-72.09791666666666,40.84082095218596],[-72.08125,40.844009129087986],[-72.06458333333333,40.83844194428165],[-72.04791666666667,40.84160820742111],[-72.03125,40.85143909021676],[-72.01458333333333,40.85586172405617],[-72.0116926015243,40.85208333333333],[-71.99791666666667,40.8413849705646],[-71.98125,40.839924686770466],[-71.96800557053126,40.85208333333333],[-71.96458333333334,40.85336666396674],[-71.93125,40.85927651351002],[-71.91458333333334,40.85820423275034],[-71.89791666666666,40.85473388968301],[-71.88125,40.85762208297321],[-71.86458333333333,40.866967298968795],[-71.86254688489801,40.86875],[-71.8533298001709,40.885416666666664],[-71.84791666666666,40.89328809691699],[-71.84306820349188,40.90208333333334],[-71.82274603081076,40.93541666666667],[-71.81458333333333,40.94380188720044],[-71.79807724372866,40.952083333333334],[-71.78125,40.96109904195083],[-71.76458333333333,40.98170946058565],[-71.76076285258863,40.985416666666666],[-71.74791666666667,40.99397846806568],[-71.73939482076646,41.00208333333333],[-71.73125,41.008649792371635],[-71.71651289395996,41.01875],[-71.71458333333334,41.02439066494213],[-71.70407180609955,41.03541666666666],[-71.70868883549103,41.052083333333336],[-71.71458333333334,41.060281355933306],[-71.71784387858382,41.06875],[-71.7215660508703,41.08541666666667],[-71.71458333333334,41.093705292727506],[-71.70334794937874,41.08541666666667],[-71.69791666666667,41.078627812224],[-71.68525809655452,41.06875],[-71.68125,41.062648561910784],[-71.66810047592412,41.052083333333336],[-71.66458333333334,41.0481693941475],[-71.64791666666666,41.04132832166008],[-71.63125,41.04093958913513],[-71.62991414158921,41.052083333333336],[-71.63909300622032,41.06875],[-71.63125,41.07431857754874],[-71.61458333333333,41.07592349983701],[-71.59791666666666,41.0727446505135],[-71.58104855506828,41.06875],[-71.56458333333333,41.06367423987528],[-71.54791666666667,41.05682932186961],[-71.53125,41.055110495956704],[-71.49791666666667,41.05401986035607],[-71.48125,41.05517208952335],[-71.46458333333334,41.06168744363793],[-71.44791666666667,41.06510101088971],[-71.43125,41.06951228621148],[-71.41458333333334,41.06102607846369],[-71.39791666666666,41.06622027856638],[-71.39540955689061,41.06875],[-71.38125,41.07900251995672],[-71.37947802590433,41.08541666666667],[-71.36458333333333,41.10201256128399],[-71.34522858508409,41.11875],[-71.34296366460659,41.135416666666664],[-71.34752553647647,41.15208333333334],[-71.337977962563,41.16875],[-71.33125,41.173905217226206],[-71.29791666666667,41.19636842878802],[-71.2876133772045,41.202083333333334],[-71.28125,41.20807680445861],[-71.27169233553526,41.21875],[-71.26458333333333,41.23380340770423],[-71.2555520035682,41.21875],[-71.24791666666667,41.21648826802129],[-71.24386321738262,41.21875],[-71.23125,41.22782611604602],[-71.21924320182862,41.235416666666666],[-71.23125,41.24615787238888],[-71.23720212234046,41.25208333333333],[-71.23125,41.26272172143428],[-71.22420735554876,41.25208333333333],[-71.21458333333334,41.24108093531714],[-71.19994146093757,41.25208333333333],[-71.19791666666667,41.252683051966464],[-71.18125,41.255038044826925],[-71.16458333333334,41.2656820161519],[-71.14791666666666,41.26387896382918],[-71.13966059626064,41.26875],[-71.13125,41.272114922154174],[-71.11458333333333,41.27332604062081],[-71.07652627300068,41.28541666666666],[-71.06458333333333,41.28837761700283],[-71.04791666666667,41.290142805646596],[-71.03125,41.28948136169511],[-71.0212503609959,41.28541666666666],[-71.01458333333333,41.28232549123993],[-70.99791666666667,41.26942794053196],[-70.98125,41.27615031163011],[-70.96458333333334,41.27000868346971],[-70.96403358666655,41.26875],[-70.96458333333334,41.26461059279291],[-70.9672999786116,41.25208333333333],[-70.98125,41.24194952020923],[-70.99791666666667,41.24798750659237],[-71.03125,41.244366629302945],[-71.04791666666667,41.2378708139384],[-71.0520376061475,41.235416666666666],[-71.06458333333333,41.23193511877143],[-71.08125,41.22616509556295],[-71.09445597385086,41.21875],[-71.09791666666666,41.21329936922465],[-71.10795269711359,41.202083333333334],[-71.11458333333333,41.19698499811882],[-71.11751480858291,41.202083333333334],[-71.11826548509408,41.21875],[-71.13125,41.22735466616602],[-71.14791666666666,41.22465708103414],[-71.15918303432821,41.21875],[-71.16458333333334,41.21077134172059],[-71.18125,41.20383215630501],[-71.18329532105369,41.202083333333334],[-71.18125,41.198254675106504],[-71.16458333333334,41.18478163970777],[-71.15891830461155,41.16875],[-71.15366268112102,41.15208333333334],[-71.14443428109134,41.135416666666664],[-71.14155141120938,41.11875],[-71.14791666666666,41.1131941196058],[-71.15420960090557,41.11875],[-71.15959682735485,41.135416666666664],[-71.16458333333334,41.13732644487105],[-71.17711738322718,41.15208333333334],[-71.17719096900086,41.16875],[-71.18125,41.17399224374227],[-71.18574503317295,41.16875],[-71.19791666666667,41.15868051366232],[-71.20450927773707,41.16875],[-71.19961682398295,41.18541666666667],[-71.21458333333334,41.18763414557767],[-71.217803362956,41.18541666666667],[-71.23125,41.17101879514861],[-71.2338502531051,41.16875],[-71.23630397031667,41.15208333333334],[-71.24791666666667,41.1444930660068],[-71.26458333333333,41.13696726067664],[-71.26711830530613,41.135416666666664],[-71.28128318730575,41.11875],[-71.2746726346661,41.10208333333333],[-71.28125,41.08745030079381],[-71.28159925561735,41.08541666666667],[-71.28125,41.08283792290629],[-71.26891461357208,41.06875],[-71.26458333333333,41.06334452694887],[-71.24791666666667,41.05646886176722],[-71.23125,41.054213761454285],[-71.22366252620847,41.052083333333336],[-71.19791666666667,41.046764535006446],[-71.18125,41.03956655399675],[-71.16458333333334,41.04051780085555],[-71.14791666666666,41.04409069561517],[-71.13125,41.046630690049476],[-71.11458333333333,41.04259236241822],[-71.09791666666666,41.04002347524226],[-71.08125,41.03687257741068],[-71.06458333333333,41.036791586561],[-71.04791666666667,41.04003156719415],[-71.03125,41.04425914608746],[-71.01458333333333,41.043517311459766],[-70.99791666666667,41.05028450456319],[-70.98125,41.04745266640833],[-70.9710151899843,41.03541666666666],[-70.96458333333334,41.03430184515616],[-70.94791666666667,41.03431028544387],[-70.94385313919805,41.03541666666666],[-70.94791666666667,41.03899453679287],[-70.95718636908283,41.052083333333336],[-70.94791666666667,41.059491780303915],[-70.93125,41.05258301678461],[-70.91458333333334,41.03748793714628],[-70.89791666666667,41.04494142001614],[-70.88125,41.045346922706486],[-70.86458333333333,41.0472327741254],[-70.84791666666666,41.056507092174144],[-70.83125,41.061839910705764],[-70.8171647577553,41.06875],[-70.81458333333333,41.070891897451226],[-70.79791666666667,41.0773613596876],[-70.78730717924307,41.08541666666667],[-70.78125,41.09065005575331],[-70.7666393553241,41.10208333333333],[-70.7520828645829,41.11875],[-70.74791666666667,41.12836121029763],[-70.71458333333334,41.1269561046296],[-70.69791666666667,41.12663824794194],[-70.67277307722955,41.135416666666664],[-70.66458333333334,41.13869236533808],[-70.64791666666667,41.146661446139575],[-70.63969159173043,41.15208333333334],[-70.63125,41.155798949111706],[-70.61458333333333,41.16127946344319],[-70.59791666666666,41.16336135952523],[-70.58125,41.15493328233034],[-70.57664712891838,41.15208333333334],[-70.56458333333333,41.14631376696433],[-70.5486160632607,41.135416666666664],[-70.56185815966917,41.11875],[-70.54791666666667,41.10424763914676]]}},{"type":"Feature","properties":{"kind":"depth","depth_m":40},"geometry":{"type":"LineString","coordinates":[[-71.82561663410874,41.16875],[-71.81458333333333,41.158903990289424],[-71.79936632488027,41.15208333333334],[-71.81458333333333,41.14948708174105],[-71.82251750544249,41.15208333333334],[-71.83125,41.1620653549245],[-71.84791666666666,41.16437702685265],[-71.86458333333333,41.164660290811604],[-71.87527125993795,41.16875],[-71.86458333333333,41.176634773461664],[-71.84791666666666,41.175926370046135],[-71.83125,41.17241770017546],[-71.82561663410874,41.16875]]}},{"type":"Feature","properties":{"kind":"depth","depth_m":40},"geometry":{"type":"LineString","coordinates":[[-72.03764595201679,41.202083333333334],[-72.03450948123896,41.18541666666667],[-72.04791666666667,41.175555331295215],[-72.06458333333333,41.18454215715194],[-72.0656698835402,41.18541666666667],[-72.07818240102297,41.202083333333334],[-72.06458333333333,41.214955696157496],[-72.04791666666667,41.20628541823055],[-72.03764595201679,41.202083333333334]]}},{"type":"Feature","properties":{"kind":"depth","depth_m":40},"geometry":{"type":"LineString","coordinates":[[-72.09791666666666,41.26124867010409],[-72.08125,41.26036631384727],[-72.07150721354795,41.25208333333333],[-72.06458333333333,41.24551793400588],[-72.04791666666667,41.246975614294364],[-72.03125,41.24114679180338],[-72.01458333333333,41.240465046612975],[-71.99791666666667,41.24166831414174],[-71.98125,41.2416926732111],[-71.96458333333334,41.24103525983835],[-71.94856030189388,41.25208333333333],[-71.93125,41.26309311055006],[-71.91458333333334,41.26007629702197],[-71.90306623266152,41.26875],[-71.89791666666666,41.271926675951306],[-71.88125,41.27212104300203],[-71.86458333333333,41.269989060466514],[-71.8587066244219,41.26875],[-71.86458333333333,41.26608604538006],[-71.88125,41.25356861870084],[-71.89791666666666,41.25580890866441],[-71.89995939645468,41.25208333333333],[-71.89816430505844,41.235416666666666],[-71.91458333333334,41.22088192971011],[-71.93125,41.23084632454463],[-71.94791666666667,41.229343765994734],[-71.95361677090268,41.21875],[-71.94791666666667,41.20535724776571],[-71.94415341964782,41.202083333333334],[-71.93125,41.19221116630727],[-71.91458333333334,41.195622955969505],[-71.89791666666666,41.194538545572875],[-71.88427607550574,41.18541666666667],[-71.89791666666666,41.17527776620942],[-71.91458333333334,41.17581637810693],[-71.93125,41.18347474588152],[-71.9337413852387,41.18541666666667],[-71.94791666666667,41.20092808926768],[-71.96458333333334,41.19273306804222],[-71.98125,41.19839181319977],[-71.9851871788901,41.202083333333334],[-71.99791666666667,41.20517381390976],[-72.01458333333333,41.20766792440003],[-72.03125,41.220544082726434],[-72.04791666666667,41.22175080905676],[-72.06458333333333,41.22554702557954],[-72.08125,41.22390464840061],[-72.08409902688604,41.21875],[-72.09791666666666,41.207929341087315]]}},{"type":"Feature","properties":{"kind":"depth","depth_m":40},"geometry":{"type":"LineString","coordinates":[[-71.82130225760335,41.235416666666666],[-71.81458333333333,41.22273842835297],[-71.81042906570279,41.21875],[-71.79791666666667,41.20408342007885],[-71.79580005192437,41.202083333333334],[-71.79791666666667,41.19744612506236],[-71.80308831149264,41.202083333333334],[-71.81458333333333,41.21003745507017],[-71.83125,41.214241530355324],[-71.84791666666666,41.222285664754494],[-71.86458333333333,41.22115746848919],[-71.87716384419376,41.235416666666666],[-71.86458333333333,41.24707245559342],[-71.84791666666666,41.24688413559702],[-71.83125,41.24791528638395],[-71.82130225760335,41.235416666666666]]}},{"type":"Feature","properties":{"kind":"depth","depth_m":40},"geometry":{"type":"LineString","coordinates":[[-71.6103418411408,41.28541666666666],[-71.61128141205162,41.26875],[-71.61458333333333,41.25754847970317],[-71.61685432217007,41.25208333333333],[-71.63125,41.244332678934484],[-71.63836734369404,41.25208333333333],[-71.63426992857394,41.28541666666666],[-71.61458333333333,41.288113440710354],[-71.6103418411408,41.28541666666666]]}},{"type":"Feature","properties":{"kind":"depth","depth_m":40},"geometry":{"type":"LineString","coordinates":[[-71.49408755835701,41.28541666666666],[-71.48125,41.27259364523409],[-71.46458333333334,41.27153000067142],[-71.43752776804446,41.26875],[-71.44791666666667,41.26507646344191],[-71.46458333333334,41.25300753048407],[-71.49791666666667,41.24540984367246],[-71.51255773114272,41.25208333333333],[-71.53125,41.262974045566814],[-71.54791666666667,41.25895467028518],[-71.55995723670173,41.26875],[-71.56458333333333,41.27687531374779],[-71.57377299884786,41.28541666666666],[-71.56458333333333,41.29522973188607],[-71.54791666666667,41.29910213796307],[-71.53125,41.29225639498753],[-71.51458333333333,41.29059941901229],[-71.49791666666667,41.28800413940915],[-71.49408755835701,41.28541666666666]]}},{"type":"Feature","properties":{"kind":"depth","depth_m":40},"geometry":{"type":"LineString","coordinates":[[-71.8145657449574,41.28541666666666],[-71.79791666666667,41.271494635578556],[-71.78125,41.27143014694478],[-71.76458333333333,41.27001195464458],[-71.75617131045796,41.26875],[-71.76458333333333,41.26564268765984],[-71.78125,41.26139814389367],[-71.79791666666667,41.264920220054805],[-71.80444942724027,41.26875],[-71.8145657449574,41.28541666666666]]}},{"type":"Feature","properties":{"kind":"depth_label","depth_m":40},"geometry":{"type":"Point","coordinates":[-70.98125,41.24194952020923]}},{"type":"Feature","properties":{"kind":"depth_label","depth_m":40},"geometry":{"type":"Point","coordinates":[-71.93125,41.23084632454463]}},{"type":"Feature","properties":{"kind":"depth_label","depth_m":40},"geometry":{"type":"Point","coordinates":[-71.54791666666667,41.25895467028518]}},{"type":"Feature","properties":{"kind":"flow_anchor"},"geometry":{"type":"Point","coordinates":[-72.06458333333333,40.78541666666666]}},{"type":"Feature","properties":{"kind":"flow_anchor"},"geometry":{"type":"Point","coordinates":[-71.93125,40.78541666666666]}},{"type":"Feature","properties":{"kind":"flow_anchor"},"geometry":{"type":"Point","coordinates":[-71.79791666666667,40.78541666666666]}},{"type":"Feature","properties":{"kind":"flow_anchor"},"geometry":{"type":"Point","coordinates":[-71.66458333333334,40.78541666666666]}},{"type":"Feature","properties":{"kind":"flow_anchor"},"geometry":{"type":"Point","coordinates":[-71.53125,40.78541666666666]}},{"type":"Feature","properties":{"kind":"flow_anchor"},"geometry":{"type":"Point","coordinates":[-71.39791666666666,40.78541666666666]}},{"type":"Feature","properties":{"kind":"flow_anchor"},"geometry":{"type":"Point","coordinates":[-71.26458333333333,40.78541666666666]}},{"type":"Feature","properties":{"kind":"flow_anchor"},"geometry":{"type":"Point","coordinates":[-71.13125,40.78541666666666]}},{"type":"Feature","properties":{"kind":"flow_anchor"},"geometry":{"type":"Point","coordinates":[-70.99791666666667,40.78541666666666]}},{"type":"Feature","properties":{"kind":"flow_anchor"},"geometry":{"type":"Point","coordinates":[-70.86458333333333,40.78541666666666]}},{"type":"Feature","properties":{"kind":"flow_anchor"},"geometry":{"type":"Point","coordinates":[-70.73125,40.78541666666666]}},{"type":"Feature","properties":{"kind":"flow_anchor"},"geometry":{"type":"Point","coordinates":[-70.59791666666666,40.78541666666666]}},{"type":"Feature","properties":{"kind":"flow_anchor"},"geometry":{"type":"Point","coordinates":[-72.06458333333333,40.91875]}},{"type":"Feature","properties":{"kind":"flow_anchor"},"geometry":{"type":"Point","coordinates":[-71.93125,40.91875]}},{"type":"Feature","properties":{"kind":"flow_anchor"},"geometry":{"type":"Point","coordinates":[-71.79791666666667,40.91875]}},{"type":"Feature","properties":{"kind":"flow_anchor"},"geometry":{"type":"Point","coordinates":[-71.66458333333334,40.91875]}},{"type":"Feature","properties":{"kind":"flow_anchor"},"geometry":{"type":"Point","coordinates":[-71.53125,40.91875]}},{"type":"Feature","properties":{"kind":"flow_anchor"},"geometry":{"type":"Point","coordinates":[-71.39791666666666,40.91875]}},{"type":"Feature","properties":{"kind":"flow_anchor"},"geometry":{"type":"Point","coordinates":[-71.26458333333333,40.91875]}},{"type":"Feature","properties":{"kind":"flow_anchor"},"geometry":{"type":"Point","coordinates":[-71.13125,40.91875]}},{"type":"Feature","properties":{"kind":"flow_anchor"},"geometry":{"type":"Point","coordinates":[-70.99791666666667,40.91875]}},{"type":"Feature","properties":{"kind":"flow_anchor"},"geometry":{"type":"Point","coordinates":[-70.86458333333333,40.91875]}},{"type":"Feature","properties":{"kind":"flow_anchor"},"geometry":{"type":"Point","coordinates":[-70.73125,40.91875]}},{"type":"Feature","properties":{"kind":"flow_anchor"},"geometry":{"type":"Point","coordinates":[-70.59791666666666,40.91875]}},{"type":"Feature","properties":{"kind":"flow_anchor"},"geometry":{"type":"Point","coordinates":[-72.06458333333333,41.052083333333336]}},{"type":"Feature","properties":{"kind":"flow_anchor"},"geometry":{"type":"Point","coordinates":[-71.79791666666667,41.052083333333336]}},{"type":"Feature","properties":{"kind":"flow_anchor"},"geometry":{"type":"Point","coordinates":[-71.66458333333334,41.052083333333336]}},{"type":"Feature","properties":{"kind":"flow_anchor"},"geometry":{"type":"Point","coordinates":[-71.53125,41.052083333333336]}},{"type":"Feature","properties":{"kind":"flow_anchor"},"geometry":{"type":"Point","coordinates":[-71.39791666666666,41.052083333333336]}},{"type":"Feature","properties":{"kind":"flow_anchor"},"geometry":{"type":"Point","coordinates":[-71.26458333333333,41.052083333333336]}},{"type":"Feature","properties":{"kind":"flow_anchor"},"geometry":{"type":"Point","coordinates":[-71.13125,41.052083333333336]}},{"type":"Feature","properties":{"kind":"flow_anchor"},"geometry":{"type":"Point","coordinates":[-70.99791666666667,41.052083333333336]}},{"type":"Feature","properties":{"kind":"flow_anchor"},"geometry":{"type":"Point","coordinates":[-70.86458333333333,41.052083333333336]}},{"type":"Feature","properties":{"kind":"flow_anchor"},"geometry":{"type":"Point","coordinates":[-70.73125,41.052083333333336]}},{"type":"Feature","properties":{"kind":"flow_anchor"},"geometry":{"type":"Point","coordinates":[-70.59791666666666,41.052083333333336]}},{"type":"Feature","properties":{"kind":"flow_anchor"},"geometry":{"type":"Point","coordinates":[-72.06458333333333,41.18541666666667]}},{"type":"Feature","properties":{"kind":"flow_anchor"},"geometry":{"type":"Point","coordinates":[-71.93125,41.18541666666667]}},{"type":"Feature","properties":{"kind":"flow_anchor"},"geometry":{"type":"Point","coordinates":[-71.79791666666667,41.18541666666667]}},{"type":"Feature","properties":{"kind":"flow_anchor"},"geometry":{"type":"Point","coordinates":[-71.66458333333334,41.18541666666667]}},{"type":"Feature","properties":{"kind":"flow_anchor"},"geometry":{"type":"Point","coordinates":[-71.53125,41.18541666666667]}},{"type":"Feature","properties":{"kind":"flow_anchor"},"geometry":{"type":"Point","coordinates":[-71.39791666666666,41.18541666666667]}},{"type":"Feature","properties":{"kind":"flow_anchor"},"geometry":{"type":"Point","coordinates":[-71.26458333333333,41.18541666666667]}},{"type":"Feature","properties":{"kind":"flow_anchor"},"geometry":{"type":"Point","coordinates":[-71.13125,41.18541666666667]}},{"type":"Feature","properties":{"kind":"flow_anchor"},"geometry":{"type":"Point","coordinates":[-70.99791666666667,41.18541666666667]}},{"type":"Feature","properties":{"kind":"flow_anchor"},"geometry":{"type":"Point","coordinates":[-70.86458333333333,41.18541666666667]}},{"type":"Feature","properties":{"kind":"flow_anchor"},"geometry":{"type":"Point","coordinates":[-70.73125,41.18541666666667]}},{"type":"Feature","properties":{"kind":"flow_anchor"},"geometry":{"type":"Point","coordinates":[-70.59791666666666,41.18541666666667]}},{"type":"Feature","properties":{"kind":"flow_anchor"},"geometry":{"type":"Point","coordinates":[-71.93125,41.31875]}},{"type":"Feature","properties":{"kind":"flow_anchor"},"geometry":{"type":"Point","coordinates":[-71.79791666666667,41.31875]}},{"type":"Feature","properties":{"kind":"flow_anchor"},"geometry":{"type":"Point","coordinates":[-71.66458333333334,41.31875]}},{"type":"Feature","properties":{"kind":"flow_anchor"},"geometry":{"type":"Point","coordinates":[-71.53125,41.31875]}},{"type":"Feature","properties":{"kind":"flow_anchor"},"geometry":{"type":"Point","coordinates":[-71.39791666666666,41.31875]}},{"type":"Feature","properties":{"kind":"flow_anchor"},"geometry":{"type":"Point","coordinates":[-71.26458333333333,41.31875]}},{"type":"Feature","properties":{"kind":"flow_anchor"},"geometry":{"type":"Point","coordinates":[-71.13125,41.31875]}},{"type":"Feature","properties":{"kind":"flow_anchor"},"geometry":{"type":"Point","coordinates":[-70.99791666666667,41.31875]}},{"type":"Feature","properties":{"kind":"flow_anchor"},"geometry":{"type":"Point","coordinates":[-70.86458333333333,41.31875]}},{"type":"Feature","properties":{"kind":"flow_anchor"},"geometry":{"type":"Point","coordinates":[-70.73125,41.31875]}},{"type":"Feature","properties":{"kind":"flow_anchor"},"geometry":{"type":"Point","coordinates":[-70.59791666666666,41.31875]}},{"type":"Feature","properties":{"kind":"flow_anchor"},"geometry":{"type":"Point","coordinates":[-71.26458333333333,41.452083333333334]}},{"type":"Feature","properties":{"kind":"flow_anchor"},"geometry":{"type":"Point","coordinates":[-71.13125,41.452083333333334]}},{"type":"Feature","properties":{"kind":"flow_anchor"},"geometry":{"type":"Point","coordinates":[-70.99791666666667,41.452083333333334]}},{"type":"Feature","properties":{"kind":"flow_anchor"},"geometry":{"type":"Point","coordinates":[-70.86458333333333,41.452083333333334]}},{"type":"Feature","properties":{"kind":"flow_anchor"},"geometry":{"type":"Point","coordinates":[-70.73125,41.452083333333334]}},{"type":"Feature","properties":{"kind":"flow_anchor"},"geometry":{"type":"Point","coordinates":[-71.39791666666666,41.58541666666667]}},{"type":"Feature","properties":{"kind":"flow_anchor"},"geometry":{"type":"Point","coordinates":[-70.86458333333333,41.58541666666667]}},{"type":"Feature","properties":{"kind":"flow_anchor"},"geometry":{"type":"Point","coordinates":[-70.73125,41.58541666666667]}},{"type":"Feature","properties":{"kind":"flow_anchor"},"geometry":{"type":"Point","coordinates":[-70.59791666666666,41.985416666666666]}}]}