{"type":"FeatureCollection","features":[{"type":"Feature","properties":{"kind":"land","source":"Natural Earth 1:10m"},"geometry":{"type":"MultiPolygon","coordinates":[[[[-70.597564,42.023098],[-70.592193,42.020087],[-70.59081,42.01732],[-70.596791,42.010647],[-70.60676,42.004584],[-70.617299,42.003241],[-70.627919,42.005561],[-70.637807,42.010647],[-70.632883,42.012112],[-70.623606,42.016059],[-70.617299,42.016791],[-70.629303,42.044338],[-70.63303517024781,42.05],[-70.6200938933178,42.05],[-70.597564,42.023098]]],[[[-70.66511,42.010647],[-70.675038,42.014716],[-70.682851,42.016059],[-70.690338,42.014716],[-70.714833,42.002672],[-70.654937,41.957099],[-70.623687,41.955064],[-70.60497,41.952541],[-70.565826,41.95539],[-70.55,41.944169059856954],[-70.55,41.55863934188756],[-70.565826,41.558173],[-70.596059,41.553046],[-70.658682,41.521349],[-70.685618,41.530829],[-70.661733,41.550482],[-70.652496,41.57803],[-70.652008,41.654242],[-70.657094,41.670559],[-70.658274,41.684475],[-70.652008,41.693915],[-70.639963,41.702297],[-70.631907,41.711127],[-70.637807,41.721991],[-70.628163,41.728095],[-70.623606,41.729438],[-70.630605,41.740139],[-70.640004,41.740953],[-70.648183,41.734198],[-70.651438,41.721991],[-70.658274,41.721991],[-70.689809,41.739691],[-70.710439,41.748033],[-70.719716,41.746161],[-70.723297,41.713772],[-70.721913,41.701606],[-70.71288,41.687812],[-70.739329,41.690131],[-70.749094,41.679755],[-70.756093,41.663031],[-70.774322,41.646226],[-70.786041,41.660468],[-70.797841,41.658881],[-70.805735,41.651028],[-70.805735,41.646226],[-70.805002,41.642564],[-70.821116,41.634996],[-70.840566,41.628892],[-70.850087,41.629543],[-70.843984,41.603949],[-70.845204,41.592475],[-70.856923,41.59162],[-70.862904,41.597235],[-70.869985,41.615871],[-70.874257,41.622992],[-70.881012,41.627916],[-70.905385,41.640041],[-70.907338,41.614936],[-70.920969,41.598334],[-70.93163,41.580268],[-70.92516,41.550727],[-70.947621,41.536444],[-70.959706,41.531195],[-70.973622,41.530829],[-70.972239,41.535102],[-70.970937,41.537665],[-71.015452,41.512274],[-71.040151,41.507148],[-71.069814,41.517157],[-71.049469,41.523749],[-71.043853,41.536851],[-71.049306,41.551947],[-71.062367,41.564358],[-71.062123,41.54385],[-71.07372,41.538723],[-71.110748,41.54385],[-71.101552,41.528306],[-71.097157,41.523383],[-71.121897,41.513007],[-71.185902,41.468736],[-71.199127,41.492133],[-71.202016,41.502631],[-71.196401,41.513414],[-71.195668,41.520819],[-71.206939,41.558173],[-71.21052,41.60224],[-71.209706,41.626166],[-71.206939,41.646226],[-71.190256,41.685614],[-71.135569,41.75552],[-71.110748,41.797065],[-71.126047,41.792426],[-71.138092,41.779934],[-71.169545,41.733303],[-71.176259,41.72663],[-71.185902,41.721991],[-71.207997,41.729153],[-71.221059,41.731391],[-71.226877,41.725735],[-71.228993,41.720933],[-71.238393,41.707343],[-71.240549,41.698065],[-71.240224,41.684638],[-71.241038,41.68122],[-71.244862,41.680325],[-71.260406,41.651109],[-71.285715,41.659613],[-71.301829,41.659613],[-71.308827,41.670803],[-71.306752,41.684719],[-71.301503,41.702623],[-71.294057,41.72016],[-71.280914,41.7414],[-71.28303,41.748847],[-71.289703,41.754096],[-71.298818,41.75609],[-71.301991,41.751695],[-71.304433,41.730048],[-71.308827,41.721991],[-71.318186,41.724799],[-71.337066,41.733791],[-71.355621,41.746283],[-71.364003,41.759833],[-71.36559,41.777655],[-71.370351,41.79206],[-71.378814,41.804999],[-71.391347,41.818793],[-71.395009,41.805732],[-71.396311,41.783271],[-71.39509,41.759508],[-71.391347,41.742499],[-71.384755,41.735663],[-71.3756,41.730536],[-71.367502,41.723822],[-71.364003,41.712063],[-71.366851,41.703559],[-71.380279,41.683661],[-71.384429,41.674221],[-71.391469,41.68301],[-71.398427,41.689765],[-71.40689,41.693834],[-71.418609,41.694648],[-71.430247,41.691107],[-71.44164,41.684068],[-71.446767,41.677232],[-71.423329,41.668158],[-71.413808,41.652899],[-71.410268,41.632961],[-71.412465,41.612738],[-71.423695,41.594306],[-71.437367,41.584784],[-71.442779,41.574652],[-71.429514,41.554389],[-71.424631,41.538886],[-71.423411,41.486396],[-71.426096,41.468736],[-71.454792,41.406132],[-71.469618,41.391331],[-71.483957,41.37995],[-71.488271,41.370592],[-71.497711,41.366278],[-71.507802,41.368109],[-71.530385,41.376451],[-71.555828,41.374846],[-71.598884,41.367522],[-71.753814,41.331041],[-71.828972,41.316984],[-71.871475,41.302575],[-71.877914,41.311512],[-71.856534,41.322501],[-71.862375,41.332587],[-71.872141,41.33926],[-71.885365,41.344631],[-71.898061,41.346503],[-71.963246,41.345364],[-71.97289,41.343695],[-72.036244,41.317857],[-72.083404,41.352037],[-72.095123,41.346096],[-72.1,41.326950009133206],[-72.1,42.05],[-70.6573337880413,42.05],[-70.66511,42.010647]]],[[[-71.930904,41.078791],[-71.9033,41.084672],[-71.875111,41.07571],[-71.857411,41.071723],[-71.864898,41.062079],[-71.88497,41.045397],[-71.929512,41.037848],[-72.008872,41.007386],[-72.087148,40.983425],[-72.1,40.978445451287975],[-72.1,41.00287767664042],[-72.088043,41.004828],[-72.049875,41.017686],[-72.011708,41.0421],[-71.992747,41.049628],[-71.975707,41.043397],[-71.958753,41.046283],[-71.958068,41.069718],[-71.945304,41.073475],[-71.933427,41.064925],[-71.918935,41.058661],[-71.918935,41.064887],[-71.930904,41.078791]]]]}},{"type":"Feature","properties":{"kind":"land","source":"Natural Earth 1:10m"},"geometry":{"type":"Polygon","coordinates":[[[-70.563344,41.418687],[-70.55,41.41474216455336],[-70.55,41.358708274755124],[-70.666005,41.357001],[-70.696278,41.351508],[-70.723948,41.342719],[-70.74767,41.331],[-70.775909,41.304389],[-70.786407,41.304145],[-70.804677,41.312567],[-70.814971,41.320705],[-70.834055,41.339911],[-70.846221,41.346666],[-70.846221,41.354071],[-70.781972,41.354234],[-70.754506,41.372504],[-70.742177,41.384833],[-70.715321,41.420356],[-70.702626,41.427802],[-70.689605,41.433092],[-70.659901,41.456529],[-70.605133,41.474026],[-70.593007,41.471666],[-70.603668,41.448228],[-70.588775,41.454169],[-70.579498,41.465888],[-70.570424,41.473944],[-70.555898,41.468736],[-70.55,41.460114278918276],[-70.55,41.441453397668774],[-70.556549,41.43651],[-70.576405,41.427802],[-70.563344,41.418687]]]}},{"type":"Feature","properties":{"kind":"land","source":"Natural Earth 1:10m"},"geometry":{"type":"MultiPolygon","coordinates":[[[[-71.330719,41.575588],[-71.337229,41.582099],[-71.337229,41.592515],[-71.330719,41.610745],[-71.335927,41.62637],[-71.35676,41.631578],[-71.359364,41.641995],[-71.355458,41.660224],[-71.343739,41.67064],[-71.335927,41.65762],[-71.330719,41.647203],[-71.317698,41.63288],[-71.303375,41.62637],[-71.304677,41.604234],[-71.315094,41.580797],[-71.330719,41.575588]]],[[[-71.566151,41.193752],[-71.559926,41.183743],[-71.551869,41.175727],[-71.544473,41.162888],[-71.549095,41.152042],[-71.571572,41.149769],[-71.59955,41.145779],[-71.613748,41.155181],[-71.612717,41.167467],[-71.608025,41.180589],[-71.597486,41.187669],[-71.591217,41.197333],[-71.582672,41.204047],[-71.580434,41.214789],[-71.5792,41.225572],[-71.572581,41.228827],[-71.567047,41.22484],[-71.553541,41.214572],[-71.559474,41.201024],[-71.566151,41.193752]]],[[[-72.022807,41.253487],[-72.038798,41.249447],[-72.036563,41.260865],[-72.026228,41.266904],[-72.02213,41.276858],[-72.011349,41.276208],[-72.003362,41.267013],[-71.998077,41.274082],[-71.994004,41.283081],[-71.953888,41.286711],[-71.939757,41.292197],[-71.920732,41.291396],[-71.928001,41.281979],[-71.946575,41.276568],[-71.970153,41.273622],[-71.988329,41.260085],[-71.998734,41.251666],[-72.022807,41.253487]]],[[[-72.091354,41.1019],[-72.078431,41.099964],[-72.079034,41.094845],[-72.085093,41.091725],[-72.084971,41.083543],[-72.081451,41.074879],[-72.086101,41.068189],[-72.092789,41.061479],[-72.1,41.05498694585513],[-72.1,41.10432086048087],[-72.091354,41.1019]]],[[[-70.821935,41.260393],[-70.814021,41.263167],[-70.809126,41.259514],[-70.801798,41.256785],[-70.801756,41.248076],[-70.810903,41.248046],[-70.823108,41.25076],[-70.832282,41.256692],[-70.830471,41.260366],[-70.821935,41.260393]]],[[[-70.859465,41.448265],[-70.856494,41.443128],[-70.848598,41.434332],[-70.854454,41.429168],[-70.875984,41.422481],[-70.906386,41.422371],[-70.927917,41.41862],[-70.938665,41.41122],[-70.948503,41.414124],[-70.940678,41.420775],[-70.92603,41.428917],[-70.911335,41.429706],[-70.897646,41.436372],[-70.871176,41.43867],[-70.859465,41.448265]]],[[[-70.710638,41.519214],[-70.694926,41.517037],[-70.679194,41.51045],[-70.699784,41.502327],[-70.718398,41.491998],[-70.742893,41.481654],[-70.758565,41.475741],[-70.757554,41.468393],[-70.768306,41.459546],[-70.790816,41.449199],[-70.808457,41.446946],[-70.832951,41.442465],[-70.839861,41.450531],[-70.828125,41.457182],[-70.813403,41.455018],[-70.782124,41.478623],[-70.724354,41.5111],[-70.710638,41.519214]]]]}},{"type":"Feature","properties":{"kind":"land","source":"Natural Earth 1:10m"},"geometry":{"type":"MultiPolygon","coordinates":[[[[-71.357289,41.536566],[-71.360422,41.514553],[-71.365631,41.495347],[-71.371449,41.482367],[-71.376088,41.476996],[-71.384145,41.469468],[-71.392649,41.463284],[-71.398793,41.4619],[-71.40099,41.468451],[-71.395172,41.490912],[-71.398793,41.502875],[-71.392201,41.505927],[-71.389475,41.509223],[-71.387807,41.512885],[-71.384429,41.517157],[-71.395334,41.526435],[-71.39269,41.54267],[-71.377675,41.577948],[-71.368398,41.576239],[-71.362416,41.572455],[-71.35912,41.566392],[-71.357818,41.558173],[-71.357289,41.536566]]],[[[-71.279449,41.593085],[-71.27359,41.620998],[-71.267812,41.632636],[-71.257802,41.640692],[-71.232737,41.652777],[-71.220611,41.660549],[-71.220611,41.640041],[-71.232574,41.605902],[-71.233632,41.530829],[-71.235097,41.518988],[-71.237538,41.509508],[-71.238026,41.500312],[-71.233632,41.489203],[-71.264801,41.49608],[-71.285959,41.482001],[-71.303212,41.466376],[-71.323069,41.468736],[-71.33495,41.459052],[-71.346181,41.454739],[-71.354563,41.458319],[-71.357818,41.47248],[-71.351308,41.477851],[-71.319976,41.488471],[-71.308827,41.495429],[-71.32136,41.508531],[-71.325551,41.519965],[-71.322255,41.530422],[-71.312489,41.540758],[-71.309153,41.546088],[-71.308176,41.553168],[-71.308827,41.567776],[-71.305776,41.571723],[-71.291086,41.578274],[-71.285512,41.581732],[-71.279449,41.593085]]]]}},{"type":"Feature","properties":{"kind":"shipping","name":"Narragansett approach"},"geometry":{"type":"LineString","coordinates":[[-71.38,41.12],[-71.38,41.3],[-71.37,41.43],[-71.36,41.56]]}},{"type":"Feature","properties":{"kind":"label","name":"Narragansett Bay"},"geometry":{"type":"Point","coordinates":[-71.36,41.53]}},{"type":"Feature","properties":{"kind":"label","name":"Rhode Island Sound"},"geometry":{"type":"Point","coordinates":[-71.31,41.2]}},{"type":"Feature","properties":{"kind":"label","name":"Block Island"},"geometry":{"type":"Point","coordinates":[-71.59,41.19]}},{"type":"Feature","properties":{"kind":"label","name":"Newport"},"geometry":{"type":"Point","coordinates":[-71.31,41.49]}}]}